_id,validated,venue_name,venue_type,venue_address,website,events,etc,menu,venue_notes,phone,email,homemade_pierogies,take_out,alcohol,lunch,handicap,publish,id,latitude,longitude
1,True,Sacred Heart Parish,Church,"310 Shady Avenue, Pittsburgh, PA 15206",http://www.sacredheartparishshadyside.org/Fish-Fry,"Friday Mar 10 from 5:00 PM to 7:30 PM, Friday Mar 31 from 5:00 PM to 7:30 PM, Friday Apr 7 from 5:00 PM to 7:30 PM, Friday Mar 24 from 5:00 PM to 7:30 PM, Friday Mar 17 from 5:00 PM to 7:30 PM, Friday Mar 3 from 5:00 PM to 7:30 PM",Fridays of Lent (except Good Friday) 5-7:30,see website,,412-361-3131,,,True,,,,True,282,40.456095,-79.923314
2,True,"St. James the Apostle, Pulaski",Church,"4019 US-422, Pulaski, PA 16143",,,,"Fridays of Lent, except Good Friday, 4-7 p.m. Serving baked or fried fish, french fries, pierogies, macaroni and cheese, green beans, cole slaw, roll, drinks and desserts. Cost is $9 for adult dinner, $4 for kids. Takeout fish sandwich and french fries is $5 from 11 a.m.-1 p.m. only. Phone for takeout sandwich orders only.",,724-964-8047,,,True,,True,,True,208,40.73507,-80.29478
3,True,VFW Post 764,Unsure / N/A,"460 Valleybrook Rd, McMurray, PA 15317",,"Friday Mar 31 from 11:30 AM to 8:00 PM, Friday Mar 24 from 11:30 AM to 8:00 PM, Friday Mar 17 from 11:30 AM to 8:00 PM, Friday Apr 14 from 11:30 AM to 8:00 PM, Friday Apr 7 from 11:30 AM to 8:00 PM, Friday Mar 3 from 11:30 AM to 8:00 PM, Friday Mar 10 from 11:30 AM to 8:00 PM",,,,,,,True,,,,True,209,40.285113,-80.089085
4,True,"St. Alphonsus, McDonald",Church," 219 W Lincoln Ave, McDonald, PA 15057",,"Friday Mar 3 from 11:00 AM to 7:00 PM, Wednesday Mar 1 from 11:00 AM to 7:00 PM",,"Baked or fried fish dinner, with roll or sandwich bun, $7. Also, cole slaw, pierogies, haluski, macaroni and cheese, desserts and canned soda, with coffee, lemon blend or iced tea included with purchase.",,412-  303-8786,,,True,,True,,True,211,40.368263,-80.236369
5,True,Richeyville VFC,Fire Department,"14 Firehall Road, Richeyville, PA 15358",http://rvfc27.com,"Wednesday Mar 1 from 10:30 AM to 6:00 PM, Friday Apr 14 from 10:30 AM to 6:00 PM, Friday Apr 7 from 10:30 AM to 6:00 PM, Friday Mar 24 from 10:30 AM to 6:00 PM, Friday Mar 17 from 10:30 AM to 6:00 PM, Friday Mar 10 from 10:30 AM to 6:00 PM, Friday Mar 31 from 10:30 AM to 6:00 PM, Friday Mar 3 from 10:30 AM to 6:00 PM","Wednesday, March 1st (Ash Wednesday) and every Friday during Lent.",,,724-632-6390,,,True,,True,,True,210,40.05341,-80.002
6,False,Labriola's Italian Market,,"605 Freeport Road Aspinwall, Pa 15215",,,,,,,,,,,,,False,110,40.488439,-79.898697
7,True,Fire Department of North Versailles at the South Wilmerding Social Club,Restaurant,"830 Sylvan Ave., North Versailles, PA",https://www.facebook.com/SWSC60/,"Friday Apr 14 from 10:30 AM to 8:00 PM, Friday Mar 10 from 10:30 AM to 8:00 PM, Friday Mar 17 from 10:30 AM to 8:00 PM, Friday Apr 7 from 10:30 AM to 8:00 PM, Friday Mar 24 from 10:30 AM to 8:00 PM, Friday Mar 3 from 10:30 AM to 8:00 PM, Friday Mar 31 from 10:30 AM to 8:00 PM, Wednesday Mar 1 from 10:30 AM to 8:00 PM",Call for business deliveries to surrounding areas.  Homemade Huluski and Mac and Cheese,https://www.facebook.com/SWSC60/photos/a.665539813557612.1073741829.420848938026702/1069721223139467/?type=3&theater,SWSC building.  Enter through double doors on Sylvan Avenue.,412-829-7422,,,True,True,True,,True,151,40.389236,-79.795318
8,True,St. Alexis Church,Church,"10090 Old Perry Highway, wexford, pa",www.stalexis.org,"Friday Apr 7 from 4:00 PM to 7:00 PM, Friday Mar 10 from 4:00 PM to 7:00 PM, Friday Mar 31 from 4:00 PM to 7:00 PM, Friday Mar 17 from 4:00 PM to 7:00 PM, Friday Mar 24 from 4:00 PM to 7:00 PM, Friday Mar 3 from 4:00 PM to 7:00 PM",,,,724-401- 1FRY,,,True,,False,True,True,212,40.595803,-80.042663
9,False,Robert Wholey & Co Inc,,"1711 Penn Avenue, Pittsburgh, PA",,,,,,,,,,,,,False,99,40.450032,-79.98599
10,True,Most Holy Name,Unsure / N/A,"1515 Tinsbury Street, Pittsburgh, PA",https://www.mostholynameofjesusparish15212.org/,"Friday Mar 10 from 4:00 AM to 7:00 PM, Friday Mar 3 from 4:00 AM to 7:00 PM, Friday Mar 24 from 4:00 AM to 7:00 PM, Friday Mar 31 from 4:00 AM to 7:00 PM, Friday Apr 7 from 4:00 AM to 7:00 PM, Friday Mar 17 from 4:00 AM to 7:00 PM",,https://www.mostholynameofjesusparish15212.org/documents/2017/2/2017%20fish%20menu%20jpg.pdf,,,,,True,,,,True,283,40.464242,-79.983391
11,True,Keith Heinritz Katering,Restaurant,"209 Brinton Ave, Trafford, PA",https://www.facebook.com/keithskatering/,"Friday Mar 10 from 10:30 AM to 9:00 PM, Friday Mar 17 from 10:30 AM to 9:00 PM, Friday Mar 3 from 10:30 AM to 9:00 PM, Friday Mar 31 from 10:30 AM to 9:00 PM, Friday Apr 14 from 10:30 AM to 9:00 PM, Friday Apr 7 from 10:30 AM to 9:00 PM, Friday Mar 24 from 10:30 AM to 9:00 PM",,https://www.facebook.com/keithskatering/photos/pcb.1638585696167981/1638585319501352/?type=3&theater,,412-373-6788,,,True,,True,,True,145,40.382784,-79.762428
12,True,Church of St Anne Fish Fry,Other,"4040 Willow Ave, Castle Shannon",www.stanneparish.com,"Wednesday Mar 1 from 4:00 PM to 7:00 PM, Friday Mar 31 from 4:00 PM to 7:00 PM, Friday Mar 17 from 4:00 PM to 7:00 PM, Friday Apr 7 from 4:00 PM to 7:00 PM, Friday Mar 10 from 4:00 PM to 7:00 PM, Friday Mar 24 from 4:00 PM to 7:00 PM, Friday Mar 3 from 4:00 PM to 7:00 PM","To order takeout, call 412-561-0101 from 3:30-6:30 p.m., with orders available for pickup from 4-6:45 p.m.","baked or fried fish dinner, fried seafood platter, shrimp dinner, baked fish Florentine, crab cake dinner, jumbo fish sandwich, cole slaw, french fries, onion rings, baked potato, homemade pierogies, macaroni and cheese, haluski, pizza.","Location is a school, fish fry in the gym",412-561-0101,,True,True,True,False,True,True,214,40.361295,-80.029514
13,True,Logans Ferry Heights ,Fire Department,"1001 Summit Ave., New Kensington, PA 15068",http://www.lfhvfd.com/51101.html,"Friday Mar 17 from 4:00 PM to 8:00 PM, Friday Apr 14 from 11:30 AM to 8:00 PM, Friday Mar 24 from 4:00 PM to 8:00 PM, Friday Mar 31 from 4:00 PM to 8:00 PM, Friday Mar 3 from 4:00 PM to 8:00 PM, Friday Mar 10 from 4:00 PM to 8:00 PM, Friday Apr 7 from 4:00 PM to 8:00 PM",,http://www.lfhvfd.com/51101.html,,,,,True,,,,True,284,40.546165,-79.749766
14,True,Nemacolin Fire Department,Fire Department,"200 Roosevelt Ave, Nemacolin Pa 15351",,"Friday Mar 31 from 11:00 AM to 6:00 PM, Friday Mar 3 from 11:00 AM to 6:00 PM, Friday Mar 17 from 11:00 AM to 6:00 PM, Friday Apr 7 from 11:00 AM to 6:00 PM, Friday Apr 14 from 11:00 AM to 6:00 PM, Friday Mar 10 from 11:00 AM to 6:00 PM, Friday Mar 24 from 11:00 AM to 6:00 PM",,,,724-966-7408,,,True,,True,,True,131,39.875755,-79.930817
15,True,"Our Lady of Grace, Scott Township",Church,"310 Kane Blvd. Scott Township, PA",http://www.olgscott.org/,"Friday Mar 10 from 4:30 PM to 7:00 PM, Friday Apr 14 from 4:30 PM to 7:00 PM, Friday Apr 7 from 4:30 PM to 7:00 PM, Friday Mar 17 from 4:30 PM to 7:00 PM, Wednesday Mar 1 from 4:30 PM to 7:00 PM, Friday Mar 31 from 4:30 PM to 7:00 PM, Friday Mar 24 from 4:30 PM to 7:00 PM",,"Dinner menu features fried and baked fish, shrimp, crab cake, seafood platter. Dinners include drink, dessert, baked potato, roll and cole slaw. A la carte menu includes lobster bisque, macaroni and cheese, pierogies, haluski, pizza, french fries, baked potatoes and more.",Conroy Hall (school),412-279-7070,,,True,,False,,True,21,40.373327,-80.08519
16,True,"St. Benedict the Abbot, Peters Township",Church," 120 Abington Dr, McMurray, PA 15317",,"Friday Mar 24 from 4:00 PM to 4:00 PM, Friday Mar 17 from 11:00 AM to 1:00 PM, Friday Mar 10 from 4:00 PM to 7:30 PM, Friday Mar 31 from 4:00 PM to 7:30 PM, Friday Mar 10 from 11:00 AM to 1:00 PM, Friday Mar 3 from 4:00 PM to 7:30 PM, Friday Apr 7 from 11:00 AM to 1:00 PM, Friday Mar 17 from 4:00 PM to 7:30 PM, Friday Mar 24 from 11:00 AM to 1:00 PM, Friday Mar 31 from 11:00 AM to 1:00 PM, Friday Apr 7 from 4:00 PM to 4:00 PM, Friday Mar 3 from 11:00 AM to 1:00 PM",,,,,,,,,True,,True,216,40.283122,-80.08578
17,False,Blaine Hill VFD,,"409 Oxford ave, Elizabeth, PA",,,,,,,,,,,,,False,104,40.272983,-79.875079
18,True,White Oak American Legion Post 701,Community Organization,"2813 Capitol St, White Oak, PA 15131",http://www.whiteoakpost701.org,,Fish Fry at the White Oak American Legion Post 701 Ash Wednesday and Every Friday in Lent (including Good Friday) from 3:00PM - 9:00PM. All proceeds and tips from the fish fry will benefit PA Housing for Homeless Veterans Corporation!  Cash Only - ATM available.,Check out our FB page for the Menu -- White Oak Legion Kitchen! Call ahead for takeout. ,,412-672-7994,,,True,,False,,True,215,40.33951,-79.798391
19,False,St. Brigid,Church,"383 Arch Street, Meadville, PA",,,,,,,,,,,,,False,57,41.636344,-80.148842
20,True,"Immaculate Conception, Washington",Church,"119 W. Chestnut St., Washington, PA",,"Friday Mar 24 from 11:00 AM to 7:00 PM, Wednesday Mar 1 from 11:00 AM to 7:00 PM, Friday Apr 14 from 11:00 AM to 7:00 PM, Friday Mar 17 from 11:00 AM to 7:00 PM, Friday Mar 3 from 11:00 AM to 7:00 PM, Friday Mar 10 from 11:00 AM to 7:00 PM, Friday Mar 31 from 11:00 AM to 7:00 PM, Friday Apr 7 from 11:00 AM to 7:00 PM","Ash Wednesday and Fridays of Lent, including Good Friday, 11 a.m.-7 p.m.","Menu features fried and baked fish dinners, fish tacos, salads, shrimp, cabbage and noodles, cheese pizza, and macaroni and cheese. Cost is $9 for adult dinner, $7 for sandwich.",,724-222- 9737,,,True,False,True,,True,16,40.172023,-80.248403
21,True,Holy Spirit (West Mifflin),Church,"2603 Old Elizabeth Road, West Mifflin, Pa 15122",https://facebook.com/holyspiritchurch/,Wednesday Mar 1 from 11:00 AM to 7:00 PM,Ash Wednesday 11a to 7p,,,412-346-0477,19201@diopitt.org,,,,,,True,15,40.348065,-79.93331
22,True,West Wilmerding VFD Station 211,Fire Department,"330 Kline ave, North Versailles, PA",https://www.facebook.com/Wwvfdfishfry/,"Friday Mar 10 from 11:00 AM to 8:00 PM, Friday Mar 3 from 11:00 AM to 8:00 PM, Friday Mar 24 from 11:00 AM to 8:00 PM, Friday Mar 17 from 11:00 AM to 8:00 PM, Friday Apr 7 from 11:00 AM to 8:00 PM, Wednesday Mar 1 from 11:00 AM to 8:00 PM, Friday Mar 31 from 11:00 AM to 8:00 PM, Friday Apr 14 from 11:00 AM to 8:00 PM",Homemade Huluski and Local Deliveries.,https://www.facebook.com/Wwvfdfishfry/,Greensburg Pike at Kline Ave,412-646-2594,,False,True,False,True,,True,108,40.397375,-79.820394
23,True,"St. Teresa of Avila, Perrysville",Church,"1000 Avila Court Pittsburgh, PA 15237",http://avilaparish.org/lenten-fish-fry/,"Friday Mar 10 from 4:30 PM to 7:30 PM, Friday Mar 3 from 4:30 PM to 7:30 PM, Friday Mar 24 from 4:30 PM to 7:30 PM, Friday Apr 7 from 4:30 PM to 7:30 PM, Friday Mar 31 from 4:30 PM to 7:30 PM, Friday Mar 17 from 4:30 PM to 7:30 PM, Friday Apr 14 from 3:30 PM to 7:30 PM",,"Fried Fish, Baked Fish, Fried Shrimp, Fish Sandiwhces, Shrimp Baskets, Homemade Mac and Cheese!, Homemade Cole Slaw -secret recipe!, Apple Sauce, French Fries, Baked Potatoes, New England Clam Chowder, Tomato Florentine Soup, Bread, Butter, Drink, Yummy Desserts, , Beer and Wine Available!!, , Dinners: $10, Junior Meal $5 age 6 - 10, Kids Meal - Free! age 5 and under",,,,,,True,,,True,47,40.539051,-80.039719
24,True,St. Bartholomew,Church,"111 Erhardt Dr, Penn Hills, PA 15235",www.stbartsparish.com/,"Friday Mar 3 from 4:30 PM to 7:00 PM, Friday Mar 24 from 4:30 PM to 7:00 PM, Friday Mar 10 from 4:30 PM to 7:00 PM, Friday Apr 7 from 4:30 PM to 7:00 PM, Friday Mar 17 from 4:30 PM to 7:00 PM, Friday Mar 31 from 4:30 PM to 7:00 PM",,"Variety of choices available, including baked, breaded or battered fish, jumbo shrimp, crab cakes, pierogies, haluski, macaroni and cheese, personal cheese pizza, french fries and breadsticks.",The Fish Fry is in the school cafeteria.,412-242-2511,,False,,False,False,,True,217,40.46448,-79.84085
25,True,St. Anthony (church hall),Church,"804 Idaho St. , Sharon , PA 16146",,,"March 3, 10, 17, 24, 31, April 7, 14","Fried or baked fish. includes choice of baked potato or french fries, applesauce or coleslaw, cookie and beverage. palacinkas, too!",,724-342-7391,,,True,False,False,,True,55,41.216598,-80.494319
26,True,Nied's Hotel,Restaurant,"5438 Butler St, Pittsburgh, PA 15201",http://niedshotel.myfastsite.com/,"Friday Mar 24 from 7:00 AM to 11:45 PM, Friday Mar 10 from 7:00 AM to 11:45 PM, Friday Mar 31 from 7:00 AM to 11:45 PM, Friday Mar 17 from 7:00 AM to 11:45 PM, Friday Apr 14 from 7:00 AM to 11:45 PM, Friday Apr 7 from 7:00 AM to 11:45 PM, Friday Mar 3 from 7:00 AM to 11:45 PM",famous fish sandwich,http://niedshotel.myfastsite.com/menu/,,412-781-9853,,,True,True,True,,True,163,40.483363,-79.949836
27,True,St. Alphonsus (Wexford),Church,"201 Church St. Wexford, Pa. 15090",www.fish-fry.org,"Friday Mar 31 from 4:30 PM to 7:30 PM, Friday Apr 7 from 4:30 PM to 7:30 PM, Friday Mar 17 from 4:30 PM to 7:30 PM, Friday Mar 3 from 4:30 PM to 7:30 PM, Friday Mar 10 from 4:30 PM to 7:30 PM, Wednesday Mar 1 from 4:30 PM to 7:30 PM, Friday Apr 14 from 3:30 PM to 7:30 PM, Friday Mar 24 from 4:30 PM to 7:30 PM",Ash Wednesday is takeout only. To order takeout call either: 724-759-8659 or 412-799-4042 from 2-7pm. This is the 10th year of this fish fry.,"Dinner menu: entree (choices of fried or baked fish, fried or baked fish sandwich or shrimp); choice of macaroni and cheese, french fries or baked potato; choice of cole slaw or applesauce; choice of clam chowder or tomato Florentine soup (not included in kids meal); and beverage (no beverage for takeout meals). Cost: $10 for adults, $2 for kids. A la carte items: fried or baked fish sandwich, $6; half-pound fried or baked fish, $6; one-pound fried or baked fish, $11; shrimp basket, $6; and more. Desserts available for additional charge.",Served in the school cafeteria.,724-759-8659,N/A,,True,,False,,True,32,40.627681,-80.057339
28,False,Harris Grill,Restaurant,"5747 Ellsworth, Pittsburgh, PA",http://harrisgrill.com/,,No info for this year.,,,,,,,,,,False,62,40.455965,-79.931308
29,True,"St. Stephen, Hazelwood",Church,"134 East Elizabeth St. Pittsburgh, PA",http://www.ststephen-hazelwood.org/,"Friday Mar 31 from 3:30 PM to 7:00 PM, Friday Apr 14 from 3:30 PM to 7:00 PM, Friday Mar 24 from 3:30 PM to 7:00 PM, Friday Apr 7 from 3:30 PM to 7:00 PM, Friday Mar 3 from 3:30 PM to 7:00 PM, Friday Mar 17 from 3:30 PM to 7:00 PM, Friday Mar 10 from 3:30 PM to 7:00 PM",,"Baked and fried fish dinners include french fries and cole slaw. A la carte menu features fried or baked fish sandwiches, grilled cheese, french fries, macaroni and cheese, haluski and cole slaw. Also featuring bake sale.",,412-421-9210 office 412-421-4748 takeout orders,,,True,False,False,True,True,46,40.407194,-79.942663
30,True,St. Catherine of Sweden,Church," 2554 Wildwood Rd, Allison Park, PA 15101",www.stcatherineofsweden.org,"Friday Mar 24 from 4:00 PM to 7:00 PM, Friday Apr 7 from 4:00 PM to 7:00 PM, Friday Mar 10 from 4:00 PM to 7:00 PM, Friday Mar 3 from 4:00 PM to 7:00 PM, Friday Mar 31 from 4:00 PM to 7:00 PM, Friday Mar 17 from 4:00 PM to 7:00 PM",Special curbside pickup for takeout orders.,"Menu: fried or baked cod; steamed seasoned shrimp, baked breaded shrimp, fish or shrimp tacos, vegetarian salad in a deep-fried tortilla shell, macaroni and cheese dinner, pizza, clam chowder. Fish dinners include two sides (french fries, baked potato, tater tots, pierogies, macaroni and cheese, applesauce). All dine-in dinners include dessert and beverage. Cost is $10 for adult dinner, $5 for child dinner, $7 for senior dinner and $7.50 for sandwich, with a 10 percent discount for dinners served in hall between 4 and 5 p.m.",In the social hall,412-486-6001,,,True,,False,,True,220,40.591488,-79.966565
31,True,St. Bernard,Church,311 Washington Road,www.stbernardfishfry.net,"Friday Apr 7 from 4:00 PM to 7:30 PM, Friday Mar 17 from 4:00 PM to 7:30 PM, Friday Mar 31 from 4:00 PM to 7:30 PM, Friday Mar 24 from 4:00 PM to 7:30 PM, Friday Mar 10 from 4:00 PM to 7:30 PM, Friday Mar 3 from 4:00 PM to 7:30 PM",,"Menu includes fried or baked fish, shrimp, macaroni and cheese and fish taco dinners. Also featuring weekly specials.",In Church Hall,412-440-2697,,,,,False,,True,221,40.386773,-80.043452
32,True,Rices Landing Volunteer Fire Department,Fire Department,"66 Bayard Ave. Rices Landing, Pa. 15357",http://rlvfd66.com/,"Friday Mar 24 from 11:00 AM to 7:00 PM, Friday Mar 17 from 11:00 AM to 7:00 PM, Friday Mar 10 from 11:00 AM to 7:00 PM, Friday Mar 31 from 11:00 AM to 7:00 PM, Wednesday Mar 1 from 4:00 PM to 8:00 PM, Friday Apr 14 from 11:00 AM to 7:00 PM, Friday Mar 3 from 11:00 AM to 7:00 PM, Friday Apr 7 from 11:00 AM to 7:00 PM",,"
Dinners (All Dinners Come with 2 Sides and a Drink):

Hand Breaded Ocean Perch Dinner - $9.00
Fish Sandwich Dinner - $9.00
Shrimp Dinner - $9.00
Clam Strip Dinner - $9.00
Chicken Strip Dinner (4pcs) - $9.00
8oz Fish Sandwich - $6.00
5 Hand Breaded Ocean Perch - $6.00

Sides:
Beer Battered Fries - $2.00
Cole Slaw - $2.00
Pierogi - $3.00 (3 in the Dinner, 4 as a side)
Cabbage and Noodles - $3.00
Mac and Cheese - $3.00
Soup (Eat In Only), March: Clam Chowder, April: Lobster Bisque - $3.00

Other Items:
Side of Shrimp or Clams - $4.00
Side of Chicken Strips (3pcs) - $4.00
Angus Burger - $4.00
Hot Pepper Cheese Balls - $3.00
Breaded Cheese Sticks - $3.00

Condiments: Lettuce, Tomato, Onion, Pickle, Cheese, Ketchup, Mustard, Tartar Sauce, Cocktail Sauce, Hot Sauce, Mayo, Ranch, BBQ, Marinara

Drinks ($1): Coke, Pepsi, Diet Pepsi, Diet Coke, Mountain Dew, Dr. Pepper, Sprite, Water, Coffee",,(724) 592-5765,riceslandingvfdco66@yahoo.com,,,False,True,,True,28,39.945374,-79.992234
33,True,"St. Hilary, Washington",Church," 320 Henderson Ave, Washington, PA 15301",www.sthilaryparish.org,,"Ash Wednesday and Fridays of Lent, including Good Friday, 11 a.m.-6 p.m. For takeout orders, call 724-222-1381.","Menu includes hand-breaded haddock, fried shrimp, french fries, cole slaw, dessert and beverages. Dine-in or takeout. For information, call 724-222-4087 or visit www.sthilaryparish.org.",,724-222-4087,,,,,,,True,222,40.188747,-80.266978
34,True,Jimmy Gs Grill,Restaurant,"341 South Central Ave. Canonsburg, PA 15317",http://jimmygsgrill.com/,"Friday Mar 17 from 11:00 AM to 11:45 PM, Friday Mar 10 from 11:00 AM to 11:45 PM, Wednesday Mar 1 from 11:00 AM to 10:00 PM, Friday Apr 7 from 11:00 AM to 11:45 PM, Friday Mar 24 from 11:00 AM to 11:45 PM, Friday Mar 31 from 11:00 AM to 11:45 PM, Friday Apr 14 from 11:00 AM to 11:45 PM, Friday Mar 3 from 11:00 AM to 11:00 AM",,,,724-745-5666,,,,True,True,True,True,223,40.253097,-80.184174
35,True,Jimmy Gs Grill,Restaurant,"341 South Central Ave. Canonsburg, PA 15317",http://jimmygsgrill.com/,"Wednesday Mar 1 from 11:00 AM to 10:00 PM, Friday Apr 7 from 11:00 AM to 11:45 PM, Friday Mar 31 from 11:00 AM to 11:45 PM, Friday Mar 24 from 11:00 AM to 11:45 PM, Friday Mar 10 from 11:00 AM to 11:45 PM, Friday Mar 17 from 11:00 AM to 11:45 PM, Friday Mar 3 from 11:00 AM to 11:00 AM, Friday Apr 14 from 11:00 AM to 11:45 PM",,,,724-745-5666,,,,True,True,True,True,224,40.253097,-80.184174
36,True,California Volunteer Fire Department,Fire Department,"1000 Wood Street, California PA 15419",https://www.facebook.com/calvfd23/,"Friday Mar 24 from 11:00 AM to 7:00 PM, Friday Apr 14 from 11:00 AM to 7:00 PM, Friday Mar 31 from 11:00 AM to 7:00 PM, Friday Apr 7 from 11:00 AM to 7:00 PM, Wednesday Mar 1 from 11:00 AM to 7:00 PM, Friday Mar 10 from 11:00 AM to 7:00 PM, Friday Mar 17 from 11:00 AM to 7:00 PM, Friday Mar 3 from 11:00 AM to 7:00 PM","Ash Wednesday and Fridays during Lent, 11AM-7PM","Several types of traditional fried fish sandwiches, ever popular baked fish dinners after 3pm, and plenty of side dishes.",,,,,,False,True,,True,172,40.067488,-79.889763
37,True,"St. Damien of Molokai, Monongahela",Church,"400 Park Ave, Monongahela, PA 15063",,"Friday Mar 17 from 11:30 AM to 2:00 PM, Friday Mar 24 from 11:30 AM to 2:00 PM, Wednesday Mar 1 from 4:00 PM to 7:00 PM, Friday Mar 10 from 11:30 AM to 2:00 PM, Friday Apr 7 from 4:00 PM to 7:00 PM, Friday Mar 17 from 4:00 PM to 7:00 PM, Friday Mar 31 from 11:30 AM to 2:00 PM, Friday Apr 7 from 11:30 AM to 2:00 PM, Friday Mar 31 from 4:00 PM to 7:00 PM, Friday Mar 3 from 11:30 AM to 2:00 PM, Friday Mar 24 from 4:00 PM to 7:00 PM, Wednesday Mar 1 from 11:30 AM to 2:00 PM, Friday Mar 3 from 4:00 PM to 7:00 PM, Friday Mar 10 from 4:00 PM to 7:00 PM","Ash Wednesday and Fridays of Lent, except Good Friday, 11:30 a.m.-2 p.m. lunch, 4-7 p.m. dinner","Menu includes fish dinners and sandwiches, shrimp, crab cakes, pizza, fresh-cut french fries, macaroni and cheese, cole slaw, haluski, provolone sticks and more.",,724-258-7742,stdamienparish@verizon.net,,,,True,,True,218,40.198765,-79.9243
38,True,"St. James, Sewickley",Church,"200 Walnut St. Sewickley, Pa. 15143",,"Friday Mar 17 from 4:30 PM to 7:00 PM, Friday Mar 31 from 4:30 PM to 7:00 PM, Friday Apr 7 from 4:30 PM to 7:00 PM, Friday Mar 10 from 4:30 PM to 7:00 PM, Friday Apr 14 from 4:30 PM to 7:00 PM, Friday Mar 3 from 4:30 PM to 7:00 PM, Friday Mar 24 from 4:30 PM to 7:00 PM",,"Dinner menu, which includes choice of two sides ;french fries, cole slaw, macaroni and cheese, green beans, haluski;, plus iced tea, coffee or lemonade for dine-in dinners: fried fish sandwich platter, 11; Boston baked cod plate, 12; crab cake, 12; Atlantic salmon plate, 13. Fish sandwich only is 8. Kids meal features fish sticks or macaroni and cheese, one side and applesauce for 5. Family takeout special for 39 includes four fish pieces, rolls and two family-size side dishes. Also featuring homemade soups, home-baked desserts, autographed sports memorabilia raffle and more.",school cafeteria,412-741-5540,,,,False,False,,True,35,40.538575,-80.182422
39,False,Siwiaks HOMEstyle cooking,Unsure / N/A,"737 West Pike Street Houston, PA 15342",,"Friday Mar 17 from 8:00 AM to 7:00 PM, Friday Mar 24 from 8:00 AM to 7:00 PM, Friday Mar 10 from 8:00 AM to 7:00 PM, Friday Mar 3 from 8:00 AM to 7:00 PM, Friday Apr 14 from 8:00 AM to 7:00 PM, Friday Apr 7 from 8:00 AM to 7:00 PM, Friday Mar 31 from 8:00 AM to 7:00 PM",,Fish (cod) jumbo shrimp regular shrimp oysters and other seafoods an more.,,,,,,,,,False,219,40.242152,-80.21326
40,False,Brown Chapel AME Church,Church,"1400 Boyle St. Pittsburgh, PA",,,,,,,,,,,,,False,170,40.457463,-80.006315
41,False,Salem Township FD,,"128 Main Street, Slickville, Pa. 15684",,,,,,,,,,,,,False,132,40.460488,-79.520559
42,False,St. Mark/Liberty Borough,Church,"3210 Liberty Way Liberty Borough, PA",,,,,,,,,,,,,False,39,40.325794,-79.856232
43,False,Markle VFD,,"470 Joyce St., Apollo, PA",,,,,,,,,,,,,False,83,40.572178,-79.645278
44,True,First United Methodist Church Covenant Center,Church,"301 North Jefferson Street, Kittanning, PA",https://www.facebook.com/firstchurchkittanning,"Friday Mar 3 from 4:30 PM to 6:30 PM, Friday Apr 7 from 4:30 PM to 6:30 PM, Friday Mar 24 from 4:30 PM to 6:30 PM, Friday Mar 10 from 4:30 PM to 6:30 PM, Friday Mar 31 from 4:30 PM to 6:30 PM, Friday Mar 17 from 4:30 PM to 6:30 PM",,"Baked or Fried Fish or Sloppy Joe Sandwich, Comes with Choice of: Baked Potato, Curly Fries, or Macaroni and Cheese, and Choice of: Apple sauce or Cole Slaw, and Roll, Beverage and Homemade Pie Adult is $9, Children $4",,,,False,True,False,False,,True,285,40.816874,-79.52297
45,True,"St. Elizabeth Ann Seton, Carnegie",Church,"330 3rd Ave. Carnegie, Pa. 15106",,,,,,,,True,,,True,,True,5,40.41042,-80.090892
46,True,"North American Martyrs Catholic School, Monroeville",Church,"2526 Haymaker Road Monroeville, PA",http://www.namcatholicchurch.org/2017-fish-fry-menu.html,"Friday Mar 24 from 11:30 AM to 11:30 AM, Wednesday Mar 1 from 11:30 AM to 7:00 PM, Friday Apr 7 from 11:30 AM to 7:00 PM, Friday Mar 31 from 11:30 AM to 7:00 PM, Friday Mar 3 from 11:30 AM to 11:30 AM, Friday Mar 10 from 11:30 AM to 7:00 PM, Friday Apr 14 from 4:00 PM to 7:00 PM, Friday Mar 17 from 11:30 AM to 11:30 AM",,,,412-372-9771,Office@namcatholicchurch.org,,True,False,True,,True,19,40.425664,-79.748941
47,True,St. Agnes/Holy Trinity,Church,"Holy Trinity Church Social Hall, 529 Grant Avenue Ext West Mifflin, PA 15122-3830",,"Wednesday Mar 1 from 11:00 AM to 6:00 PM, Friday Mar 3 from 11:00 AM to 6:00 PM, Friday Mar 24 from 11:00 AM to 11:00 AM, Friday Mar 10 from 11:00 AM to 6:00 PM, Friday Mar 17 from 11:00 AM to 11:00 AM, Friday Mar 31 from 11:00 AM to 6:00 PM, Friday Apr 7 from 11:00 AM to 6:00 PM, Friday Apr 14 from 11:00 AM to 6:00 PM","Ash Wednesday and Fridays of Lent, including Good Friday, 11 a.m.-6 p.m. ","Menu: fried and baked fish sandwiches and dinners; shrimp dinner; crab cake dinner. Plus, haluski, cole slaw, pierogies, baked macaroni, homemade soups of the day and more.",,412-466-9695,,,True,False,True,,True,31,40.370546,-79.86589
48,True,"St. Thomas More, Bethel Park",Church,"126 Fort Couch Road, Bethel Park, PA",www.stmpgh.org/morefish,"Friday Mar 31 from 4:30 PM to 7:30 PM, Friday Apr 7 from 4:30 PM to 7:30 PM, Friday Mar 17 from 4:30 PM to 7:30 PM, Friday Mar 3 from 4:30 PM to 7:30 PM, Friday Mar 10 from 4:30 PM to 7:30 PM, Friday Mar 24 from 4:30 PM to 7:30 PM","Fridays of Lent, except Good Friday, 4:30-7:30 p.m., Family Life Center, 126 Fort Couch Road."," hand-breaded fried fish or baked fish dinner, with side of pasta marinara or french fries; pasta dinner with featured sauce or marinara sauce. Dinners are $10 for adults, $5 for children, and include choice of salad, cole slaw or applesauce. All-you-can-eat pasta with marinara sauce is $10. Half portions of regular features, or buttered noodles with a side and roll for kids, are available. Also offering hand-breaded fried fish sandwich only. Gluten-free fish and pasta available. A la carte menu: macaroni and cheese, french fries, homemade soup, pizza. Featured sauces made by parishioner Lucia Facco are: March 3, shrimp sauce; March 10, three-pepper sauce; March 17, smoked salmon sauce; March 24, shrimp sauce; March 31, three-pepper sauce; April 7, smoked salmon sauce. Desserts feature cakes, cookies and ice cream. Show special STM app at cash register and receive ticket for free dessert. Beer, wine and soda available for sale. ",,412-833-0031,,,True,True,,,True,280,40.342445,-80.052163
49,True,Jimmy Gs Grill,Restaurant,"341 South Central Ave. Canonsburg, PA 15317",http://jimmygsgrill.com/,"Friday Apr 7 from 11:00 AM to 11:45 PM, Wednesday Mar 1 from 11:00 AM to 10:00 PM, Friday Mar 17 from 11:00 AM to 11:45 PM, Friday Mar 10 from 11:00 AM to 11:45 PM, Friday Apr 14 from 11:00 AM to 11:45 PM, Friday Mar 3 from 11:00 AM to 11:00 AM, Friday Mar 24 from 11:00 AM to 11:45 PM, Friday Mar 31 from 11:00 AM to 11:45 PM",,,,724-745-5666,,,,True,True,True,True,225,40.253097,-80.184174
50,True,"Our Lady of Fatima, Hopewell Township",Church,"2270 Brodhead Road Hopewell Township, PA",http://www.olof.us/,"Friday Mar 31 from 4:00 AM to 7:00 PM, Friday Apr 14 from 3:00 AM to 7:00 PM, Friday Apr 7 from 4:00 AM to 7:00 PM, Friday Mar 17 from 4:00 AM to 7:00 PM, Friday Mar 10 from 4:00 AM to 7:00 PM, Friday Mar 3 from 4:00 AM to 7:00 PM, Friday Mar 24 from 4:00 AM to 7:00 PM",,"We are offering both take out and eat in sandwiches and dinners in Kohler Hall.  We have both fr ied and  baked fish, fried shrimp, halushki, pierogies, French fries, fr eshly cooked  vegetables, and homemade desserts. ",,412-375-7672,,False,True,False,False,,True,20,40.585077,-80.257412
51,True,Kretzler's Tavern,Restaurant,"2240 Babcock Blvd., Pittsburgh, Pennsylvania",http://www.kretzlerstavern.com/,,,famous fish sandwich,,,,,,True,True,,True,286,40.512522,-79.997174
52,True,Trinity Lutheran,Church,"3102 Sherwood Ave., Sheraden, PA",http://www.trinitysheraden.com/UpcomingEvents.htm,"Wednesday Mar 1 from 12:00 PM to 6:00 PM, Friday Apr 14 from 12:00 PM to 6:00 PM, Friday Mar 10 from 12:00 PM to 6:00 PM, Friday Mar 17 from 12:00 PM to 6:00 PM, Friday Apr 7 from 12:00 PM to 6:00 PM, Friday Mar 24 from 12:00 PM to 6:00 PM, Friday Mar 3 from 12:00 PM to 6:00 PM, Friday Mar 31 from 12:00 PM to 6:00 PM",Noon-6 Ash Wednesday and Fridays of Lent,"All Dinners/Platters include 1 side dish, coleslaw, roll, butter and dessert. All you can eat fish dinner $10.75 Seafood platter (fish, crab cake and shrimp $9.00 Fish dinner (breaded and fried) $7.75 Fish sandwich dinner $7.75 Shrimp dinner $7.75 Crab Cake Dinner $7.75 Clam strips dinner $7.75 Shrimp only (6 pieces) $5.50 Clam strip only $5.50 Fish sandwich $5.00 Fish on a dish (1 piece) $3.50 Crab cake on a dish (1 piece) $3.50 Macaroni and Cheese $2.25 French Fries $2.25 Haluski $2.25 Pierogies $2.25 Coleslaw $.75 Dessert $1.00 Pop $1.00 Coffee $.75 Extra Bun $.35",Entrance on the side,412-331-0600,,False,True,False,True,False,True,153,40.455098,-80.058133
53,True,"St. Therese of Lisieux, Munhall",Church,"3 St. Therese Court Pittsburgh, PA",http://www.st-therese.net/,"Friday Mar 17 from 3:30 PM to 7:00 PM, Friday Mar 31 from 3:30 PM to 7:00 PM, Friday Apr 14 from 3:30 PM to 7:00 PM, Friday Apr 7 from 3:30 PM to 7:00 PM, Friday Mar 3 from 3:30 PM to 7:00 PM, Friday Mar 10 from 3:30 PM to 7:00 PM, Friday Mar 24 from 3:30 PM to 7:00 PM",,,,412-462-8164,,,True,,False,,True,48,40.387956,-79.901066
54,False,Doublewide Grill (North Huntingdon),,"8695 U.S. Hwy 30, Irwin, PA",,,,,,,,,,,,,False,85,40.318748,-79.686583
55,False,Larimer VFD,,"1340 Brownstown Rd., Larimer, PA",,,,,,,,,,,,,False,148,40.344486,-79.72572
56,False,Fayette City VFC,,"340 Second Street, Fayette City, PA 15438",,,,,,,,,,,,,False,128,40.098682,-79.839722
57,True,"St. Titus, Aliquippa",Church,"952 Franklin Ave. Aliquippa, PA", www.sttitus.org,Wednesday Mar 1 from 12:00 PM to 6:30 PM,,,,724-378-2734,,True,True,False,True,,True,50,40.612954,-80.256001
58,True,Epiphany (Uptown),Church,"164 Washington Place Pittsburgh, Pa. 15219",www.epiphanychurch.net,"Wednesday Mar 1 from 11:00 AM to 7:00 PM, Friday Apr 14 from 11:00 AM to 7:00 PM, Friday Mar 31 from 11:00 AM to 7:00 PM, Friday Mar 3 from 11:00 AM to 7:00 PM, Friday Apr 7 from 11:00 AM to 7:00 PM, Friday Mar 17 from 11:00 AM to 7:00 PM, Friday Mar 24 from 11:00 AM to 7:00 PM, Friday Mar 10 from 11:00 AM to 7:00 PM",Free parking available.,,McDowell Hall; beneath church,412-471-1008,,,,False,True,,True,9,40.439768,-79.990649
59,True,Immaculate Heart of Mary,Church,"100 Penn Avenue, Mercer, PA",http://www.ihmcmercer.com,"Friday Mar 17 from 5:00 PM to 7:00 PM, Friday Mar 3 from 5:00 PM to 7:00 PM, Friday Apr 7 from 5:00 PM to 7:00 PM, Friday Mar 31 from 5:00 PM to 7:00 PM, Friday Mar 10 from 5:00 PM to 7:00 PM, Friday Apr 14 from 5:00 PM to 7:00 PM, Friday Mar 24 from 5:00 PM to 7:00 PM",,"Adults: 10 dollars; Children: 5 dollars (under 3 free) -- fried fish, fries, coleslaw, bread and butter, coffee, tea, lemonade",Event is in Gallagher Hall,724-662-2999,ihm@zoominternet.net,False,True,False,False,,True,54,41.232051,-80.240215
60,True,Swissvale Fire Department,Fire Department,"7400 Irvine Street, Pittsburgh, PA 15218",http://swissvalefire.org/,"Friday Apr 7 from 11:00 AM to 7:00 PM, Friday Mar 17 from 11:00 AM to 7:00 PM, Friday Apr 14 from 11:00 AM to 7:00 PM, Friday Mar 10 from 11:00 AM to 7:00 PM, Wednesday Mar 1 from 11:00 AM to 7:00 PM, Friday Mar 31 from 11:00 AM to 7:00 PM, Friday Mar 24 from 11:00 AM to 7:00 PM, Friday Mar 3 from 11:00 AM to 7:00 PM","""Deliciously Famous""",See Website,,4122718787,,False,True,False,True,,True,100,40.420674,-79.889398
61,True,Bridgeville Volunteer Fire Department,Fire Department,"370 Commercial Street, Bridgeville, PA",http://www.bridgevillevfd.com/2017fishfrymenu.pdf,,"4-7 pm biweekly: March 3, 17, 31; April 14",see website link,,,,,,False,False,,True,95,40.362,-80.106939
62,True,Our Place Homemade,Restaurant,"105 Middle Ave., Wilmerding, PA",http://www.ourplacehomemade.comcastbiz.net/,"Friday Mar 31 from 11:00 AM to 8:00 PM, Friday Apr 14 from 11:00 AM to 8:00 PM, Friday Mar 24 from 11:00 AM to 8:00 PM, Friday Mar 3 from 11:00 AM to 8:00 PM, Friday Apr 7 from 11:00 AM to 8:00 PM, Friday Mar 17 from 11:00 AM to 8:00 PM, Friday Mar 10 from 11:00 AM to 8:00 PM, Wednesday Mar 1 from 11:00 AM to 8:00 PM",Homemade Fish Sticks!,"Fish Sandwich , 1 lb Giant Fish Hoagie , Tuna Salad , Homemade Fish Sticks , Shrimp Basket Stuffed Shrimp , Stuffed Flounder , Crab Cakes , Fish Dinner Special Sides: Mac & Cheese , Fresh Cut Fries , Pierogies , Haluksi , New England Clam Chow",,412-646-2786,,True,,False,True,,True,164,40.395375,-79.803132
63,True,Option Independent Fire Company,,"825 Streets Run Road, Pittsburgh, PA",,"Friday Mar 17 from 3:00 AM to 7:00 PM, Friday Apr 7 from 3:00 AM to 7:00 PM, Friday Mar 10 from 3:00 AM to 7:00 PM, Friday Apr 14 from 3:00 AM to 7:00 PM, Friday Mar 24 from 3:00 AM to 7:00 PM, Friday Mar 3 from 3:00 AM to 7:00 PM, Friday Mar 31 from 3:00 AM to 7:00 PM",,https://www.facebook.com/photo.php?fbid=10212631954581625&set=p.10212631954581625&type=3&theater,,,,,True,,False,,True,129,40.348215,-79.971825
64,True,St. Nicholas Serbian Orthodox,Church,"2110 Haymaker Road, Monroeville, PA",http://www.stnicholasmonroeville.org/,"Friday Apr 7 from 4:00 AM to 6:00 PM, Friday Mar 10 from 4:00 AM to 6:00 PM, Friday Mar 17 from 4:00 AM to 6:00 PM, Friday Mar 24 from 4:00 AM to 6:00 PM, Friday Mar 3 from 4:00 AM to 6:00 PM, Friday Apr 14 from 4:00 AM to 6:00 PM, Friday Mar 31 from 4:00 AM to 6:00 PM",Klub Karadjordje fish fry 4-7 every Friday during Lent.,,,412-856-8166,stnicholasmonroeville@gmail.com,,,False,False,,True,66,40.404933,-79.756456
65,True,"St. Joseph, Verona",Church,"825 Second St. Verona, PA",http://stjosephveronapa.com/event/fish-fry-2017/,"Friday Mar 24 from 4:00 PM to 7:00 PM, Friday Apr 7 from 4:00 PM to 7:00 PM, Wednesday Mar 1 from 4:00 PM to 7:00 PM, Friday Mar 17 from 4:00 PM to 7:00 PM, Friday Mar 10 from 4:00 PM to 7:00 PM, Friday Apr 14 from 4:00 PM to 7:00 PM, Friday Mar 3 from 4:00 PM to 7:00 PM","Note that there is no fish fry on March 31. To place an order, call 412-795-5114 from noon-4 p.m. the day before.","Baked or fried fish dinner, shrimp dinner, homemade soup, hush puppies, haluski, macaroni and cheese, pizza and more.",In the social hall,412-795-5114,joevchurch@verizon.net,,,False,False,,True,37,40.507697,-79.841044
66,False,Hookstown Volunteer Fire Department,,"102 Silver Slipper Rd Hookstown, Pennsylvania",,,,,,,,,,,,,False,81,40.58616,-80.475548
67,True,Holy Trinity National Catholic Church,Church,"605 Hewitt Ave. Washington, PA 15301",http://holytrinitywashingtonpa.org/,"Friday Mar 3 from 11:00 AM to 7:00 PM, Friday Mar 31 from 11:00 AM to 7:00 PM, Friday Mar 17 from 11:00 AM to 7:00 PM, Friday Mar 24 from 11:00 AM to 7:00 PM, Friday Mar 10 from 11:00 AM to 7:00 PM, Friday Feb 24 from 11:00 AM to 7:00 PM, Friday Apr 7 from 11:00 AM to 7:00 PM",,,,724-225-1895,,True,True,False,True,True,True,226,40.174551,-80.248628
68,True,"St. Rosalia Academy, Greenfield",Church,"411 Greenfield Ave. Pittsburgh, PA",http://www.strosaliaparish.org,Wednesday Mar 1 from 11:00 AM to 7:00 PM,"***ASH WEDNESDAY ONLY*** Saint Rosalia Academy along with Saint Rosalia Parish will be having a Fish Fry on Ash Wednesday, March 1, 2017, from 11:00am-7:00pm . ",Menus are available at the entrances to the Church.,Wuerl Hall,412-521-9987,,,True,False,True,True,True,45,40.42573,-79.943023
69,True,Mount Oliver Fire Department,Fire Department,"120 Brownsville Rd., Mount Oliver, PA",https://www.facebook.com/MtOliverFire/,"Friday Mar 3 from 11:00 AM to 7:00 PM, Friday Apr 14 from 11:00 AM to 7:00 PM, Friday Mar 24 from 11:00 AM to 7:00 PM, Friday Mar 31 from 11:00 AM to 7:00 PM, Friday Apr 7 from 11:00 AM to 7:00 PM, Friday Mar 10 from 11:00 AM to 7:00 PM, Friday Mar 17 from 11:00 AM to 7:00 PM",,https://www.facebook.com/MtOliverFire/photos/a.478095408891663.115426.217105154990691/1477773735590487/?type=3&theater,,412-431-5210,,,,,True,,True,291,40.417083,-79.987008
70,True,Mother of Sorrows,Unsure / N/A,"4202 Old William Penn Hwy Murrysville, PA 15668",https://www.facebook.com/motherofsorrowsmurrysville/,"Friday Mar 17 from 11:30 AM to 7:00 PM, Friday Mar 10 from 11:30 AM to 7:00 PM, Friday Mar 3 from 11:30 AM to 7:00 PM, Friday Mar 24 from 11:30 AM to 7:00 PM, Friday Mar 31 from 11:30 AM to 7:00 PM, Friday Apr 7 from 11:30 AM to 7:00 PM",,https://www.facebook.com/motherofsorrowsmurrysville/photos/a.175243462814267.1073741828.174889776182969/432174380454506/?type=3&theater,,724-980-2636,,,True,,True,,True,292,40.429485,-79.686043
71,True,Claridge VFW,Fire Department,"3100 Blocks Rd., Claridge, PA 15623",,"Friday Mar 10 from 11:00 AM to 8:00 PM, Friday Mar 31 from 11:00 AM to 8:00 PM, Friday Apr 14 from 11:00 AM to 8:00 PM, Friday Mar 17 from 11:00 AM to 8:00 PM, Friday Mar 24 from 11:00 AM to 8:00 PM, Friday Apr 7 from 11:00 AM to 8:00 PM, Friday Mar 3 from 11:00 AM to 8:00 PM",,https://www.facebook.com/111109495633531/photos/a.314237345320744.69221.111109495633531/1251260814951721/?type=3&theater,,724-744-2400,,,True,,True,,True,293,40.366033,-79.616433
72,True,"St. Thomas A Becket, Jefferson Hills",Church,"139 Gill Hall Road Pittsburgh, PA",http://saintthomasabecket.com,"Friday Mar 10 from 3:30 PM to 7:00 PM, Friday Mar 3 from 3:30 PM to 7:00 PM, Friday Mar 31 from 3:30 PM to 7:00 PM, Friday Apr 14 from 3:30 PM to 7:00 PM, Friday Mar 17 from 3:30 PM to 7:00 PM, Friday Mar 24 from 3:30 PM to 7:00 PM, Friday Apr 7 from 3:30 PM to 7:00 PM",,See menu at http://saintthomasabecket.com/2017FishFrymenu.pdf,,,,,,False,True,,True,49,40.316059,-79.964112
73,True,Mount St. Peter,Church,"100 Freeport Road, New Kensington, PA",https://www.facebook.com/MSPParish/,"Friday Mar 3 from 11:00 AM to 6:00 PM, Friday Mar 31 from 11:00 AM to 6:00 PM, Friday Apr 7 from 11:00 AM to 6:00 PM, Friday Mar 24 from 11:00 AM to 6:00 PM, Friday Mar 17 from 11:00 AM to 6:00 PM, Friday Mar 10 from 11:00 AM to 6:00 PM",,Baked or fried fish sandwiches or dinners; shrimp dinner; mac n cheese; pasta with marinara or aglio e oglio; pasta fagioli. Dessert available.,,724-335-1458,,,True,,True,True,True,287,40.563602,-79.761143
74,True,Triple Ts Tavern,Restaurant,"30 Oregon Street, Washington PA 15301",https://www.facebook.com/tripletstavern/,"Friday Mar 24 from 4:00 PM to 2:00 AM, Friday Mar 17 from 4:00 PM to 2:00 AM, Friday Mar 31 from 4:00 PM to 2:00 AM, Friday Apr 14 from 4:00 PM to 2:00 AM, Friday Mar 3 from 4:00 PM to 2:00 AM, Friday Apr 7 from 4:00 PM to 2:00 AM, Friday Mar 10 from 4:00 PM to 2:00 AM","Fish available on a first come, first served basis. ",a la carte; Menu includes 8oz breaded Icelandic cod sandwich or breaded deep fried shrimp. ,Inside the tavern. Must be 18 to enter. ,724-229-2929,,,True,True,,,True,227,40.16767,-80.251892
75,True,Oakmont Elks,Community Organization,"106 Washington Ave., Oakmont, PA",,"Friday Mar 17 from 5:00 PM to 7:00 PM, Friday Mar 24 from 5:00 PM to 7:00 PM, Friday Apr 7 from 5:00 PM to 7:00 PM, Friday Mar 3 from 5:00 PM to 7:00 PM, Friday Apr 14 from 5:00 PM to 7:00 PM, Friday Mar 10 from 5:00 PM to 7:00 PM, Friday Mar 31 from 5:00 PM to 7:00 PM",Fridays during Lent - confirm time before going Call for takeout.,,,412-828-1668,,,True,,False,,True,75,40.516208,-79.847427
76,True,Unionville Methodist Church,Unsure / N/A,"1297 PA-68, Rochester, PA 15074",http://unionvilleumc.org/,"Friday Apr 14 from 3:00 PM to 6:00 PM, Friday Mar 24 from 4:00 PM to 7:00 PM, Friday Mar 31 from 4:00 PM to 7:00 PM, Friday Mar 17 from 4:00 PM to 7:00 PM, Friday Mar 10 from 4:00 PM to 7:00 PM, Friday Mar 3 from 4:00 PM to 7:00 PM, Friday Apr 7 from 4:00 PM to 7:00 PM, Friday Apr 14 from 4:00 PM to 7:00 PM",,See page 26: http://unionvilleumc.org/Newsletter_Page_Site/Newsletter_Page_Frameset.htm,,,,,True,,False,,True,288,40.746226,-80.206967
77,True,"Christ United Methodist Church, Bethel Park",Church,"44 Highland Rd., Bethel Park, PA",,"Friday Mar 10 from 4:00 PM to 7:00 PM, Friday Mar 3 from 4:00 PM to 7:00 PM, Friday Apr 7 from 4:00 PM to 7:00 PM, Friday Apr 7 from 4:00 PM to 7:00 PM, Friday Mar 24 from 4:00 PM to 7:00 PM, Friday Mar 24 from 11:00 AM to 2:00 PM, Friday Mar 31 from 4:00 PM to 7:00 PM, Friday Mar 10 from 11:00 AM to 2:00 PM, Friday Mar 17 from 11:00 AM to 2:00 PM, Friday Apr 7 from 11:00 AM to 2:00 PM, Friday Mar 31 from 11:00 AM to 2:00 PM, Friday Mar 17 from 4:00 PM to 7:00 PM",,http://www.christumc.net/content.cfm?id=133&announcement_id=2091,,412-835-6621,,,,,True,,True,294,40.348504,-80.048385
78,True,Wilpen VFD,,"379 Wilpen Rd., Ligonier, PA",https://www.facebook.com/Wilpen-VFD-165522976986550/,"Friday Apr 14 from 4:00 PM to 7:00 PM, Friday Mar 3 from 4:00 PM to 7:00 PM, Friday Mar 17 from 4:00 PM to 7:00 PM, Friday Mar 31 from 4:00 PM to 7:00 PM, Friday Apr 7 from 4:00 PM to 7:00 PM, Friday Mar 24 from 4:00 PM to 7:00 PM, Friday Mar 10 from 4:00 PM to 7:00 PM",,*Fish sandwiches *Baked fish *Homemade Haluski *Pierogies *Macaroni and Cheese *Desserts,,724-238-7221,,,True,,False,,True,103,40.281313,-79.195428
79,True,Assumption,Church,"45 North Sprague Avenue, Bellevue, PA 15202",www.assumptionchurch.org,"Friday Mar 17 from 4:00 PM to 7:00 PM, Friday Apr 7 from 4:00 PM to 7:00 PM, Friday Mar 3 from 4:00 PM to 7:00 PM, Friday Mar 31 from 4:00 PM to 7:00 PM, Friday Mar 24 from 4:00 PM to 7:00 PM, Friday Mar 10 from 4:00 PM to 7:00 PM","To order takeout, call 412-766-9727. We accept credit cards. For wheelchair access, there is a ramp that leads from North Jackson Avenue (behind the church) to our McGovern Hall.  Bathrooms accessible too.","Dinner includes fish fillet, fish sandwich or shrimp, plus choice of sides. Also a la carte menu and bake sale. Cost is $10 for adult dinner, $2.50 for child dinner and $7.75 for sandwich. Menu Highlights  We hand-bread our fish and make slaw from scratch.  We offer traditional and Eastern European sides.  Plus, we offer a Low Carb dinner.",,412-766-6660,,,True,,False,True,True,232,40.497425,-80.05727
80,True,Zelienople Memorial Skate Park,Community Organization,"308 W. New Castle St., Zelienople, PA",,,Fridays 4pm to 8pm March 3rd to April 14th,See their Facebook page,,724-824-3210,,,True,False,False,,True,102,40.795071,-80.139738
81,True,St. Columbkille,Church,"103 Church Rd, Imperial, PA 15126",www.saintcolumbkilleparish.org/,"Friday Mar 17 from 4:00 PM to 7:00 PM, Friday Mar 3 from 4:00 PM to 7:00 PM, Friday Mar 24 from 4:00 PM to 7:00 PM, Friday Mar 31 from 4:00 PM to 7:00 PM, Friday Apr 7 from 4:00 PM to 7:00 PM, Friday Mar 10 from 4:00 PM to 7:00 PM",,"Menu fish dinner, $7 for adults, $5 for child, $5.50 for senior. Shrimp dinner for $7.50, combo fish and shrimp dinner, and baked fish dinner with green beans almondine instead of french fries. Also featuring fish sandwich for $6, and the famous Columbkille sandwich for $6.50.",Takeout filled in the hall,724-695-9084,,,True,,False,,True,229,40.447793,-80.243387
82,True,"Our Lady of Most Blessed Sacrament, Natrona Heights",Church,"1526 Union Avenue, Natrona Heights, PA 15065",www.olmbss.org,,"Fridays of Lent, including Good Friday, 4-7 p.m.","Dinner menu is deep-fried cod sandwich, plus macaroni and cheese and cole slaw, or deep-fired cod sandwich with chips and cole slaw. A la carte menu includes fried cod sandwich, baked cod, potato and cheese pierogies, macaroni and cheese, cole slaw and chips.",,724-226-4905,,,True,,False,,True,3,40.6234,-79.72977
83,True,Palazzo 1837 Ristorante,Restaurant,"1445 Washington Road, Washington, PA 15301",http://www.palazzo1837.com/,,,,,724-223-1837,,,True,True,True,,True,230,40.499601,-79.626231
84,True,Shenanigans Bar and Grill,Restaurant,"921 Amity Ridge Road Amity, PA 15311",https://www.facebook.com/shenanigansamitypa/,"Friday Mar 3 from 9:00 AM to 12:00 AM, Friday Mar 24 from 9:00 AM to 12:00 AM, Friday Mar 10 from 9:00 AM to 12:00 AM, Friday Apr 7 from 9:00 AM to 12:00 AM, Friday Apr 14 from 9:00 AM to 12:00 AM, Friday Mar 31 from 9:00 AM to 12:00 AM, Friday Mar 17 from 9:00 AM to 12:00 AM",,,,724-225-4646,,,,True,True,,True,231,40.056951,-80.2106
85,True,Corpus Christi,Church,"803 Market St, McKeesport", www.corpuschristimckeesport.com,"Friday Mar 31 from 10:00 AM to 7:00 PM, Friday Apr 7 from 10:00 AM to 7:00 PM, Friday Mar 24 from 10:00 AM to 7:00 PM, Friday Mar 3 from 10:00 AM to 7:00 PM, Friday Mar 17 from 10:00 AM to 7:00 PM, Wednesday Mar 1 from 10:00 AM to 7:00 PM, Friday Mar 10 from 10:00 AM to 7:00 PM","Ten percent of proceeds benefit the Greater Pittsburgh Community Food Bank. takeout and delivery, call 412-672-6004 from 10 a.m.-7 p.m. Last phone order/fax order taken at 5 p.m.","Friday menu: hand-breaded fried fish sandwich, $7; small fried fish sandwich, $4; fried butterfly shrimp, $6; baked fish, $6; tuna salad croissant, $4; toasted cheese sandwich, $3; tuna melt sandwich, $5. Side menu includes specialty soup, tomato soup, homemade pierogies with butter and onions, potato pancakes, cabbage with homemade noodles, baked macaroni and cheese, hush puppies, french fries, stewed tomatoes, cole slaw, applesauce and pickle. Specialty soups of the week: March 3, broccoli cheese; March 10, minestrone; March 17, potato; March 24, vegetable; March 31, lobster bisque; April 7, New England clam chowder. Also, thin crepes filled with sweet cream cheese filling.",,412-672-6004,,True,True,,True,,True,233,40.347688,-79.865687
86,True,Holy Ghost Byzantine Catholic Church,Church,828 Meadow Ave. Charleroi PA 15022,,"Friday Mar 3 from 11:00 AM to 6:00 PM, Friday Mar 10 from 11:00 AM to 6:00 PM, Friday Mar 24 from 11:00 AM to 6:00 PM, Friday Apr 7 from 11:00 AM to 6:00 PM","Eat in or take out. ON THE DAY OF THE SALES, Please call the social hall for takeout orders at 724-489-0500","Fresh breaded one pound fish sandwich. Pirogi. Choice of frozen cabbage pirogi and or frozen lekvar. Cooked potato cheese with butter and onions or can buy frozen. We will be featuring ethnic lenten dishes on these dates.. Soups.. Lima Bean , NE Clam chowder; Halushki, Potato Pancakes, Coleslaw Macaroni with green peppers in tomato sauce. ***There will be different soups and specials for each week*** Also we will be selling Paska Bread for Easter.. (Can call ahead for advance orders)Call by March 12th and pick up on April 7th. Call to order Paska 724-258-5720 or 724-777-2092",,724-489-0500,,True,True,False,True,,True,67,40.139008,-79.90493
87,True,Adamsburg VFD,Fire Department,"495 Edna Rd, Adamsburg, Pennsylvania 15611",https://www.facebook.com/AdamsburgVfd,"Friday Apr 14 from 4:00 PM to 7:00 PM, Friday Apr 7 from 11:00 AM to 1:00 PM, Friday Mar 17 from 4:00 PM to 7:00 PM, Friday Mar 17 from 11:00 AM to 1:00 PM, Wednesday Mar 1 from 11:00 AM to 1:00 PM, Friday Mar 10 from 4:00 PM to 7:00 PM, Wednesday Mar 1 from 4:00 PM to 7:00 PM, Friday Mar 10 from 11:00 AM to 1:00 PM, Friday Mar 31 from 4:00 PM to 7:00 PM, Friday Mar 3 from 4:00 PM to 7:00 PM, Friday Apr 7 from 4:00 PM to 7:00 PM, Friday Mar 24 from 11:00 AM to 1:00 PM, Friday Apr 14 from 11:00 AM to 1:00 PM, Friday Mar 31 from 11:00 AM to 1:00 PM, Friday Mar 3 from 11:00 AM to 1:00 PM, Friday Mar 24 from 4:00 PM to 7:00 PM",Joint Fish Fry w/ the High Park Volunteer Fire Department ,See their Facebook page (https://www.facebook.com/AdamsburgVfd) for the complete menu.,,724-527-2180,,,,False,True,,True,92,40.307082,-79.655381
88,True,Church of the Ascension,Church,"4729 Ellsworth Ave, Pittsburgh, PA",http://www.ascensionpittsburgh.org/lenten-dinner-series/,"Friday Mar 17 from 6:30 PM to 8:30 PM, Friday Mar 31 from 6:30 PM to 8:30 PM, Friday Mar 10 from 6:30 PM to 8:30 PM, Friday Mar 24 from 6:30 PM to 8:30 PM","Evening-long program: Dinner-6:30, Worship-7:15, Teaching-7:30, QA-8:15, Dismiss-8:30. See the website for speakers.","Buffet dinner catered by Denise Bozich. Suggested donations for the dinner are as follows: $7/adult, $3/child, $20 family maximum.",,412-621-4361,,,False,False,False,,True,274,40.449102,-79.946821
89,True,Pitcairn Station 230,Fire Department,"557 Broadway Blvd., Pitcairn, Pa 15140",https://www.facebook.com/Pitcairn-Fire-Department-Station-230-147323132018875/,"Friday Mar 31 from 4:00 AM to 8:00 PM, Friday Mar 3 from 4:00 AM to 8:00 PM, Friday Mar 10 from 4:00 AM to 8:00 PM, Friday Mar 24 from 4:00 AM to 8:00 PM, Friday Apr 14 from 4:00 AM to 8:00 PM, Friday Apr 7 from 4:00 AM to 8:00 PM, Friday Mar 17 from 4:00 AM to 8:00 PM, Wednesday Mar 1 from 4:00 AM to 8:00 PM",Free Delivery,https://www.facebook.com/photo.php?fbid=1466235763388184&set=p.1466235763388184&type=3&theater,Pitcairn Park Building,412-856-5630,,,True,False,False,,True,147,40.402047,-79.776326
90,False,Hartford Heights Volunteer Fire Department,,"14335 U.S. 30, Irwin, PA 15642",,,,,,,,,,,,,False,90,40.352969,-79.767295
91,True,"Our Lady of Victory Maronite Catholic Church, Carnegie",Church,"1000 Lindsay Rd, Carnegie, PA 15106",www.olovpittsburgh.org,,"Fridays of Lent, except Good Friday, noon-7 p.m.","Menu includes fried and baked fish, macaroni and cheese, french fries and a variety of Lebanese side dishes. Cost: dinner with three sides, $14; dinner with two sides, $11; fish sandwich, $6; extra side dishes, $3; children under 10, $5. Credit cards accepted.",,412-278-0841,,,,,True,,True,234,40.41042,-80.090892
92,True,Marianna Volunteer Fire Company,Fire Department,"84 Broad Street Marianna, PA 15345",,"Friday Mar 24 from 11:00 AM to 7:00 PM, Wednesday Mar 1 from 11:00 AM to 7:00 PM, Friday Apr 7 from 11:00 AM to 7:00 PM, Friday Mar 31 from 11:00 AM to 7:00 PM, Friday Mar 17 from 11:00 AM to 7:00 PM, Friday Mar 3 from 11:00 AM to 7:00 PM","No fish fry on Friday, March 10.",,,,,,True,,True,,True,235,40.002959,-80.121921
93,True,Moon Township VFC,Fire Department,"1000 Beaver Grade Road, Moon Township, PA 15108",http://moontwpfire.com,"Friday Mar 3 from 11:00 AM to 8:00 PM, Friday Mar 10 from 11:00 AM to 8:00 PM, Friday Mar 17 from 11:00 AM to 8:00 PM, Friday Mar 31 from 11:00 AM to 8:00 PM, Friday Mar 24 from 11:00 AM to 8:00 PM, Friday Apr 14 from 11:00 AM to 8:00 PM, Friday Apr 7 from 11:00 AM to 8:00 PM","The annual Moon Twp. VFC Lenten Fish Frys will be held on Fridays during lent from March 3rd,2017 to April 14th,2017 at the Public Safety Building. Fish Fry Hours are 11:00 AM-8:00PM. All food on menu can be for take out service or sit down meals","Menu items--all dinners include Fries and our special firehouse recipe Coleslaw--Fish Dinner, Chicken Dinner, Shrimp Dinner, Fish Sandwich",,412-262-5006,,False,True,False,True,,True,74,40.504618,-80.208152
94,True,Allegheny Elks Lodge #339,Community Organization,"400 Cedar Avenue, Pittsburgh, PA",https://www.facebook.com/alleghenyelks/,"Friday Mar 24 from 5:30 PM to 8:00 PM, Friday Mar 10 from 5:30 PM to 8:00 PM, Friday Apr 14 from 5:30 PM to 8:00 PM, Friday Apr 7 from 5:30 PM to 8:00 PM, Friday Mar 31 from 5:30 PM to 8:00 PM, Friday Mar 17 from 5:30 PM to 8:00 PM, Friday Mar 3 from 5:30 PM to 8:00 PM"," Come get your Lenten Fish Fry on with Allegheny Elks on the Northside. Every Friday, March 3rd through April 14th.","Large Fish Sandwich - $11; Small Fish Sandwich - $8; Grilled Cod - $11; Toasted Cheese Sandwich - $6; Each meal comes with 2 sides (choose from fries, homemade mac & cheese, stewed tomatoes, coleslaw). A la carte sides - $3 each",,412-321-1834,,,True,True,False,False,True,101,40.451826,-80.000775
95,True,"St Elizabeth Ann Seton, Carnegie",Church,"330 3rd Ave, Carnegie, PA 15106",,"Friday Mar 17 from 11:30 AM to 7:00 PM, Friday Mar 10 from 11:30 AM to 7:00 PM, Friday Mar 31 from 11:30 AM to 7:00 PM, Friday Mar 3 from 11:30 AM to 7:00 PM, Friday Apr 7 from 11:30 AM to 7:00 PM, Wednesday Mar 1 from 11:30 AM to 7:00 PM, Friday Apr 14 from 3:00 PM to 7:00 PM, Friday Mar 24 from 11:30 AM to 7:00 PM","For phone orders, call 412-276-1011, ext. 220, from 11 a.m.-6 p.m.","Dinner menu: fish trio dinner, $12.50; baked fish dinner, $8.50; fried fish dinner, $8.25; crab cake dinner, $9; shrimp dinner, $8; pierogie dinner (six), $6; macaroni and cheese dinner with stewed tomatoes, $6; fish parmesan, $8.50. Dinners include cole slaw and roll with butter. A la carte menu includes baked or fried fish sandwich, crab cakes, shrimp basket and pierogies. Sides include french fries, pasta marinara, haluski, clam chowder, potato soup and more.",In St Luke Hall,412-276-1011 ext 220,,,,,True,,True,238,40.403918,-80.091003
96,False,Shelleys Pike Inn Restaurant,Restaurant,"144 West Pike St Houston, PA 15342",,,,"Come try our delicious breaded cod. Fish sandwich alone is $8.99, or get a fish sandwich, french fries, and coleslaw for $10.99.",,,,,,,,,False,240,,
97,True,St Albert the Great Church,Church,3198 Schieck St,,"Friday Mar 24 from 3:00 PM to 7:00 PM, Friday Mar 31 from 3:00 PM to 7:00 PM, Friday Mar 10 from 3:00 PM to 7:00 PM, Friday Mar 17 from 3:00 PM to 7:00 PM, Friday Apr 7 from 3:00 PM to 7:00 PM, Friday Apr 14 from 3:00 PM to 7:00 PM, Wednesday Mar 1 from 3:00 PM to 7:00 PM, Friday Mar 3 from 3:00 PM to 7:00 PM",Credit cards and checks welcome.,"Dinners, $9, and includes two sides: Panko breaded Icelandic cod fried fish sandwich; Panko breaded Icelandic cod fried fish on a dish; orange juice and herb-baked Icelandic cod fish; breaded shrimp; Maryland crab cake; homemade potato pierogie. Sides include french fries, macaroni and cheese, cole slaw, haluski, stewed tomatoes and potato pancakes. A la carte menu is $6. Soup is $4 for 12 ounces, and includes choice of New England clam chowder or weekly soup du jour. Also, albacore tuna salad croissant with lettuce and tomato, cheese pizza, pretzels, deep-fried wheel of provolone cheese. Featuring fresh doughnuts, with choice of plain, iced, sugar and jimmies.",,412-440-0221,,True,True,False,False,,True,239,40.387001,-79.963388
98,True,Pittsburgh Moose Lodge 46 North Hills,Community Organization,"1044 Saxonburg Blvd., Glenshaw, PA",http://www.moose46.org/,"Friday Mar 31 from 4:00 PM to 9:00 PM, Friday Apr 14 from 4:00 PM to 9:00 PM, Friday Mar 10 from 4:00 PM to 9:00 PM, Friday Apr 7 from 4:00 PM to 9:00 PM, Friday Mar 24 from 4:00 PM to 9:00 PM, Friday Mar 3 from 4:00 PM to 9:00 PM, Friday Mar 17 from 4:00 PM to 9:00 PM",,https://www.facebook.com/MooseLodge46/photos/a.311685879038551.1073741833.200770863463387/581249358748867/?type=3&theater,,412-487-9055,,,True,True,,,True,289,40.519496,-79.939018
99,True,Hogfathers Canonsburg,Restaurant,"113 Cavasina Drive, Canonsburg, PA 15317",http://hogfathersbbq.com,,,,,724-743-3227,,,True,True,True,,True,242,40.26255,-80.17428
100,True,Hogfathers Washington,Restaurant,"1301 Jefferson Ave, Washington, PA 15301",http://hogfathersbbq.com,,,,,724-229-1227,,,True,True,True,,True,244,40.18625,-80.26741
101,True,"St. Patrick, Canonsburg",Church," 317 W Pike St, Canonsburg, PA 15317",www.stpatrickparish.net,,"Fridays of Lent, except Good Friday, 11 a.m.-1 p.m. lunch, 4-7 p.m. dinner. Fax orders to 724-746-1112 two hours prior to pickup or delivery.","Lunch menu features hand-breaded cod sandwich in adult and child size, soup and sides. Delivery is available for lunch within seven miles with minimum order of $30. Dinner entrees include hand-breaded baked or fried cod, shrimp and seafood platter, with two sides, roll and butter, dessert and beverage. Sides include hush puppies, haluski, macaroni and cheese, cole slaw, applesauce and stewed tomatoes. Also featuring homemade desserts. Homemade pierogies for sale, cooked with butter and onions, or dozen frozen.",,724-745-6560,,True,True,,True,,True,245,40.258009,-80.195076
102,True,Hogfathers Washington Crown Center,Restaurant,"1500 West Chestnut Street, Washington, PA 15301",hogfathersbbq.com,,,,,724-222-9227,,,True,True,True,,True,246,40.172387,-80.246061
103,True,Holy Angels (Hays),Church,"408 Baldwin Road Pittsburgh, Pa. 15207",http://www.holyangelshays.org/fish-fry.html,,"ASH WEDNESDAY: MARCH 1, and FRIDAYS:  MARCH 3, 10, 17, 24, 31 and April 7, 14 (Good Friday) 11:00 AM TO 6:30 PM","fried fish sandwich dinner, with french fries and cole slaw, $9; baked fish dinner with baked potato, cole slaw and roll, $9; a la carte menu includes baked or fried fish sandwich and fried or baked fish with no bun, pizza, New England clam chowder and Maryland crab soup. Side dishes include macaroni and cheese, baked potato, french fries and cole slaw.",,412-461-9503,,False,True,False,True,False,True,11,40.387258,-79.93301
104,False,Spring House,Unsure / N/A,"1531 Route 136 Washington, PA 15301",,,,,,,,,,,,,False,243,40.174551,-80.248628
105,True,OTB Bicycle Cafe,Restaurant,"2518 East Carson St, Pittsburgh, PA 15203",,,,"We will be featuring a Colossal Fish sandwich with lettuce and tomato, Guinness Fish tacos with lime slaw, avocado, and pico de gallo, and last bit not least, our OTB Shrimp Po Boy!!",,,,,,,,,True,295,40.427401,-79.969068
106,True,"St. Maximilian Kolbe, West Homestead",Church,"363 W. 11th Ave. West Homestead, PA",https://www.facebook.com/StMaxParish/,"Friday Mar 3 from 10:00 AM to 7:00 PM, Wednesday Mar 1 from 10:00 AM to 7:00 PM, Friday Mar 10 from 10:00 AM to 7:00 PM, Friday Mar 24 from 10:00 AM to 7:00 PM, Friday Apr 14 from 10:00 AM to 7:00 PM, Friday Mar 17 from 10:00 AM to 7:00 PM, Friday Mar 31 from 10:00 AM to 7:00 PM, Friday Apr 7 from 10:00 AM to 7:00 PM","Fish dinners come with steak fries and cole slaw. No substitutions, please.  Business delivery 11 a.m. until 1 p.m. for orders of $30 or more (order must be placed by 11:00 a.m.)  Credit Cards accepted for purchases of $25 or more ($2 service fee applies)  Credit Cards cannot be accepted for delivery orders",Fish:  Fried fish sandwich $7.75  Fried fish dinner $9.75  Baked fish sandwich $8.00  Baked fish dinner $10.25  Extra Bun $1.00 Shrimp:  Jumbo shrimp (6) $6.75  Jumbo shrimp dinner $9.75  Popcorn shrimp $5.50  Popcorn shrimp dinner $8.00 Crab:  Crab cakes (2) $9.00  Crab cake dinner $10.75  Stuffed flounder dinner $10.00 Stuffed Tomato - Tuna $6.00  Tuna Salad on Croissant $6.00  Egg Salad on Croissant $6.00  Linguini (comes with salad and roll):  Shrimp $9.25 red or white  Scallops $9.25 red or white  Pizza with cheese $6.00  3 Pierogies $3.00  6 Pierogies $6.00  12 Pierogies $9.75  with onion without onion Potato pancakes (3) $5.00 Applesauce/ sour cream Steak Fries $2.75 Stewed Tomato $2.50 Tuna Noodle Casserole $7.00 Haluski:  12 ounce $3.00  32 ounce $6.50 Potato Haluski:  12 ounce $5.00  32 ounce $9.00 Mac N Cheese:  8 ounces $3.50  12 ounces $6.00  Quart $9.00 Soup:  12 ounces $3.50  Quart $7.00 Cole Slaw:  Serving $1.25  Pint $3.00  Quart $5.00 Salad:  Side $3.00  Large $5.00 Fresh Fruit Cup One Size $3.50 Applesauce $1.00,,412-462-1743,,,True,False,True,,True,41,40.401601,-79.91404
107,True,St. Irenaeus (Oakmont),Church,"387 Maryland Ave, Oakmont, PA 15139",,"Friday Mar 31 from 11:00 AM to 1:00 PM, Friday Mar 31 from 4:00 PM to 7:00 PM, Friday Apr 7 from 11:00 AM to 1:00 PM, Friday Mar 10 from 4:00 PM to 7:00 PM, Friday Mar 3 from 4:00 PM to 7:00 PM, Friday Mar 17 from 4:00 PM to 7:00 PM, Friday Mar 17 from 11:00 AM to 1:00 PM, Friday Mar 3 from 11:00 AM to 1:00 PM, Friday Mar 10 from 11:00 AM to 1:00 PM, Friday Apr 7 from 4:00 PM to 7:00 PM, Friday Mar 24 from 4:00 PM to 7:00 PM, Friday Mar 24 from 11:00 AM to 1:00 PM",Takeout orders available; call 412-828-9846. Jeanne Kaus Memorial St. Is Community Fish Fry.,"Lunch menu- baked or fried fish sandwich, $6; tuna croissant, $4.50; salad, $3; homemade haluski, $2; macaroni and cheese, $2; cole slaw, $2; french fries, $2. Dinner menu, with choice of two side items: baked or fried fish, $9.50; shrimp, $9.50; tuna croissant, $7.50. Side items include salad, cole slaw, french fries, onion rings, baked potato, haluski, macaroni and cheese. A la carte menu features fish sandwiches, pizza, chicken nuggets and more. An array of desserts are available. ",In Blough Hall,412-828-9846,,,True,,True,,True,248,40.519276,-79.841161
108,True,St. Luke,Church,421 East 38th Street. Erie PA,http://www.slserie.org/,"Friday Mar 17 from 5:00 PM to 7:00 PM, Friday Mar 3 from 5:00 PM to 7:00 PM, Friday Mar 10 from 5:00 PM to 7:00 PM, Friday Mar 24 from 5:00 PM to 7:00 PM","Takeout available after 5pm. 50-50 and Gift Basket Raffle. Hosted by the Knights of Columbus, Msrg. Robert D Goodill Council 11229",Fish Dinner - 10. Captains Platter - 12 Shrimp Basket - 7,St Luke Cafe,814-825-7105 ,,False,True,False,False,,True,60,42.105262,-80.057136
109,True,Ancient Order of Hibernians,Unsure / N/A,"302 Mansfield Avenue Carnegie, Pa. 15106",http://www.aohdivision32.org/,"Friday Mar 3 from 4:00 AM to 7:00 PM, Friday Mar 31 from 4:00 AM to 7:00 PM, Friday Apr 7 from 4:00 AM to 7:00 PM, Friday Mar 10 from 4:00 AM to 7:00 PM, Friday Mar 24 from 4:00 AM to 7:00 PM, Friday Apr 14 from 4:00 AM to 7:00 PM, Friday Mar 17 from 4:00 AM to 7:00 PM",,Cost: Prices range from 3 to 10;  Menu: Hand breaded and fried Haddock Sandwiches and dinners; Baked Fish Sandwiches and dinners; Fried Shrimp dinners; Home Made Haluski; Baked Potatoes; French Fries; Home Made Cole Slaw; Macaroni and Cheese,"Ukaranian American Citizens Club, Social Hall dining room",,aohdiv32@gmail.com,False,True,True,False,,True,247,40.41042,-80.090892
110,True,Hills Restaurant,Restaurant,"107 Main St, New Eagle, PA 15067",https://www.facebook.com/Hills-Restaurant-117576318259711/,"Friday Mar 10 from 10:00 AM to 8:00 PM, Friday Apr 7 from 10:00 AM to 8:00 PM, Friday Mar 24 from 10:00 AM to 8:00 PM, Friday Mar 31 from 10:00 AM to 8:00 PM, Friday Mar 17 from 10:00 AM to 8:00 PM, Friday Mar 3 from 10:00 AM to 8:00 PM, Friday Apr 14 from 10:00 AM to 8:00 PM"," Fresh Hand Breaded Haddock, Tuna Salad, Cabbage and Homemade Dumplings, Homemade Mac and Cheese, Salmon Patties, Lobster Bisque, Shrimp n a Basket, and lots more.",,,(724) 258-5422,,,,,True,,True,249,40.206987,-79.940977
111,True,Church of the Resurrection Byzantine,Church,"455 Center Road, Monroeville, PA",http://www.archpitt.org/place/church-of-the-resurrection-byzantine-catholic/,,,"Fish sandwiches, shrimp, salmon cakes, dinners ($10-$13)",,412-372-9415,,,True,,,,True,290,40.453849,-79.761257
112,True,Armandos Pizza,Unsure / N/A,"583 Fallowfield Ave. Charleroi, PA 15022",http://armandospizza.net/,,Ash Wednesday and every Friday,Colossal Fish Sandwich and Cole Slaw 6.99. The Pounder Platter 1lb of Fish and 1lb of Fries 10.99. Voted Best Fish in the Valley.,,724-483-5540,,False,,True,True,,True,251,40.138896,-79.899255
113,True,St. Joan of Arc (South Park),Church,"6470 Library Rd, South Park Township, PA 15129",,"Friday Mar 10 from 11:00 AM to 7:00 PM, Friday Mar 24 from 11:00 AM to 7:00 PM, Friday Mar 17 from 11:00 AM to 7:00 PM, Friday Mar 31 from 11:00 AM to 7:00 PM, Friday Mar 3 from 11:00 AM to 7:00 PM, Friday Apr 7 from 11:00 AM to 7:00 PM, Wednesday Mar 1 from 11:00 AM to 7:00 PM","Dine-in or takeout. For advance orders, call 412-854-3173.","Lunch Special, 11am-2pm Fried cod sandwich with french fries, $7.50; pizza with side salad, $5 (toppings additional); one crab cake with homemade cup of soup, $6. Entrees: fried cod fish sandwich, $7; baked cod sandwich with dill hollandaise sauce, $7; baked cod or fried fish dinner with french fries and cole slaw, $9; baked Norwegian salmon, with dill hollandaise sauce, $9 ($12 with salad and roll); fried shrimp, $6.50; shrimp PoBoy sandwich with french fries, $8.50; homemade lump crab cake, $4.50 for one, $8.50 for two; fish taco, $7; spicy fish bites, $5.50; pierogies, $5 for six. Special seafood combo, with fried or baked cod with bun, two shrimp and one crab cake, $12. Also, red flatbread pizza, $3, plus 75 cents for pepperoni, and white flatbread pizza, with tomato and spinach, $1.50. Beer and wine available. ",,412-854-3173,,,True,True,True,,True,252,40.287514,-80.025658
114,True,Heidelberg Volunteer Fire Department,Fire Department,"456 First Street, Heidelberg PA 15106",,"Friday Apr 14 from 11:00 AM to 11:00 AM, Wednesday Mar 1 from 11:00 AM to 7:00 PM",Ash Wednesday and Good Friday only,"Main dishes include fish sandwiches, fish and shrimp dinners and crab cakes. Sides including mac n cheese, fries, soups, and more. Our world famous pierogis will also be available ,potato and cheese only for Ash Wednesday. Stop by early as they are sure to sell out. For Good Friday only, if youd like to pre-order pierogis - potato and cheese, sauerkraut or sweet cabbage , please call 412-722-6314.",Fire Department Social Hall. Ample parking and hall entrance is located behind the fire station.,412 722-6314,,,True,False,False,,True,250,40.391722,-80.092331
115,True,All Saints,Church,"11264 Route 97 North, Waterford PA",,"Friday Mar 24 from 4:30 PM to 7:30 PM, Friday Mar 31 from 4:30 PM to 7:30 PM, Friday Apr 7 from 4:30 PM to 7:30 PM, Friday Mar 17 from 4:30 PM to 7:30 PM, Friday Mar 10 from 4:30 PM to 7:30 PM, Friday Mar 3 from 4:30 PM to 7:30 PM","4:30-7:30 pm March 3, 10, 17, 24, 31, and April 7","Baked or fried white fish. Adult $9, Child 12 and under $4, Toddlers free. Includes choice of baked potato and french fries, coleslaw/applesauce, homemade desserts, and drink.",,814-796-3023,,,True,,False,,True,253,41.974787,-80.009111
116,True,American Legion Post 902,Community Organization,"124 West Pike St., Houston, PA",https://www.facebook.com/American-legion-Post-902-148513762170830/,,,Fish and shrimp available for Lent,,,,,,,,,True,159,40.248652,-80.211168
117,True,Elliott West End Athletic Association,Community Organization,"Herschel St and Hassler St Pittsburgh, PA 15220",https://www.facebook.com/EliottAthleticAssociation/,"Friday Mar 17 from 4:00 PM to 7:00 PM, Friday Apr 14 from 4:00 PM to 7:00 PM, Friday Mar 24 from 4:00 PM to 7:00 PM, Friday Mar 31 from 4:00 PM to 7:00 PM, Wednesday Mar 1 from 4:00 PM to 7:00 PM, Friday Mar 10 from 4:00 PM to 7:00 PM, Friday Mar 3 from 4:00 PM to 7:00 PM, Friday Apr 7 from 4:00 PM to 7:00 PM",Takeout only. ,"Fried Fish Dinner and Shrimp Dinners 10 each, Fried Fish Sandwich 7, Haluski 3, Mac and Cheese 3, Grilled Cheese with chips 3, French Fries 2. Dinners include French fries, cole slaw, and drink. Extra drinks 1 extra. Drink choices include Pepsi, Diet Pepsi, Mountain Dew, Root Beer, Brisk Tea, Sierra Mist, bottled water.",Sales are out of the Herschel Playground Little League candy stand.  ,412-928-8854,,False,True,False,False,,True,259,40.44088,-80.04379
118,True,Northside Catholic School (at Risen Lord),Church,"3250 California Avenue, Pittsburgh, PA",https://www.facebook.com/events/459415711115955/,,"March 3-Good Friday we will be hostng Northisde Catholic Schools Fish Fry Fridays at Risen Lord Church on Californis Avenue. Dine in from 3-6:30 or order a family meal for takeout, deliveries wil be made from 3-5pm, within a 5 mile radius from the church, for deliveries please call 4129921360 between 11-2 (on the day of the Fish Fry) to place your orders. We are handicap accesible!! Our hopes are to contiue to serve the community and with that we hope to see you at our Fish Fry Fridays!","Baked fish, fried fish, grilled cheese sandwhiches, mini cheese pizzas and much more we are sure will have something for everyone!! ",,4129921360,,,,False,False,True,True,174,40.474645,-80.038741
119,True,St. Joseph (Coraopolis),Church,"1304 4th Ave, Coraopolis, PA 15108",,"Friday Mar 3 from 3:45 PM to 6:45 PM, Friday Apr 7 from 3:45 PM to 6:45 PM, Friday Apr 7 from 11:30 AM to 1:30 PM, Friday Mar 3 from 11:30 AM to 1:30 PM, Friday Mar 10 from 3:45 PM to 6:45 PM, Friday Apr 14 from 3:45 PM to 6:45 PM, Friday Mar 31 from 11:30 AM to 1:30 PM, Friday Mar 31 from 3:45 PM to 6:45 PM, Friday Mar 10 from 11:30 AM to 1:30 PM, Friday Mar 17 from 11:30 AM to 1:30 PM, Friday Mar 24 from 3:45 PM to 6:45 PM, Friday Apr 14 from 11:30 AM to 1:30 PM, Friday Mar 24 from 11:30 AM to 1:30 PM, Friday Mar 17 from 3:45 PM to 6:45 PM",Call ahead at 412-329-7911 for takeout orders.,,,412-329-7911,,,True,,True,,True,255,40.516294,-80.158868
120,True,Holy Cross (Reilly Center),Church,"7100 West Ridge Road, Fairview PA",,,,"Fried pollack, fried shrimp, or combo. Adult $10, Child $5. Includes baked potato, homemade coleslaw, roll, butter, dessert, and beverage. Mac and cheese $5. ",,814-474-2605,,,True,,,,True,256,42.03971,-80.245022
121,True,Hanover Volunteer Fire Department Fish Fry,Fire Department,"9 Starck Drive, Burgettstown, PA 15021",hanovervfd45.com,"Friday Mar 24 from 11:00 AM to 7:00 PM, Friday Mar 10 from 11:00 AM to 7:00 PM, Friday Mar 3 from 11:00 AM to 7:00 PM, Friday Apr 7 from 11:00 AM to 7:00 PM, Friday Mar 17 from 11:00 AM to 7:00 PM, Wednesday Mar 1 from 11:00 AM to 7:00 PM, Friday Apr 14 from 11:00 AM to 7:00 PM, Friday Mar 31 from 11:00 AM to 7:00 PM",Delivery available,"Fish Dinner with Cole Slaw and One Side - $12.00
Shrimp Dinner with Cole Slaw and One Side - $12.00
Fish Sandwich - $10.00
Shrimp Basket - $10.00
Chicken Sandwich - $5.00
Mac and Cheese - $3.00
Haluski - $3.00
French Fries - $3.00
Pierogies (4) - $3.00
Cole Slaw - $3.00
Drinks - $1.00",,724-729-3929,,,True,False,True,,True,254,40.380792,-80.393425
122,True,St. Philip- Ascension Worship Site,Church,"114 Berry St., Pittsburgh, PA",,"Friday Mar 3 from 4:00 PM to 7:00 PM, Friday Apr 14 from 4:00 PM to 7:00 PM, Friday Apr 7 from 4:00 PM to 7:00 PM, Friday Mar 31 from 4:00 PM to 7:00 PM, Friday Mar 10 from 4:00 PM to 7:00 PM, Friday Mar 17 from 4:00 PM to 7:00 PM, Friday Mar 24 from 4:00 PM to 7:00 PM","Ash Wednesdays and Fridays of Lent, including Good Friday, 4-7 p.m.","Fish sandwich, 6.50; fish dinner, 7.75; baked cod dinner, 8.75; jumbo shrimp dinner, 9; crab cake dinner, 9; seafood platter, 9.50; macaroni and cheese, 2. Soup, haluski, grilled cheese, beverages and dessert available.",Venue is located in Connor Hall of Ascension Church,412-922-6300,,,,,False,,True,43,40.449117,-80.068625
123,True,Tower Restaurant,Restaurant,"680 W Chestnut St Washington, PA 15301",http://www.towerrestaurant.net/,,,,,724-222-5952,,,,,True,,True,258,40.169556,-80.260334
124,True,Centerville American Legion Post 705,Community Organization,1101 Old National Pike Fredericktown PA 15333,https://www.facebook.com/CALPost705/,"Friday Apr 14 from 5:00 PM to 8:00 PM, Friday Mar 24 from 5:00 PM to 8:00 PM, Friday Apr 7 from 5:00 PM to 8:00 PM, Friday Mar 17 from 5:00 PM to 8:00 PM, Friday Mar 3 from 5:00 PM to 8:00 PM, Friday Mar 31 from 5:00 PM to 8:00 PM, Friday Mar 10 from 5:00 PM to 8:00 PM",EVERY FRIDAY FROM NOVEMBER 11TH - APRIL 21ST,https://www.facebook.com/CALPost705/photos/a.578206219030287.1073741828.334499336734311/602404116610497/?type=3&theater,,724-632-9591,,,True,,False,,True,141,40.047622,-79.987232
125,True,Smithton VFD,Fire Department,"609 Center Street, Smithton, PA",http://smithtonfire.org/news.html?view=1&id=11521,,4-7 PM every Friday of Lent,Hand Breaded / Fried North Atlantic Cod; French Fries; Homemade Cole Slaw; Roll and Butter; Free Coffee; Pop / Water can be purchased at the hall; Cost per Dinner: $9.50,,724-872-9201,,,,,False,,True,276,40.15497,-79.743086
126,True,"St. Raphael, Morningside/Stanton Heights",Church,"1154 Chislett St. Pittsburgh, PA",http://www.straphaelpgh.org/,"Friday Mar 10 from 4:30 PM to 7:00 PM, Friday Apr 7 from 4:30 PM to 7:00 PM, Friday Mar 31 from 4:30 PM to 7:00 PM, Friday Apr 14 from 4:30 PM to 7:00 PM, Friday Mar 24 from 4:30 PM to 7:00 PM, Friday Mar 3 from 4:30 PM to 7:00 PM, Friday Mar 17 from 4:30 PM to 7:00 PM",Please be sure to stop by our 8th Grade Bake Sale for dessert! Proceeds benefit a field trip!,"Dinners include entree, two sides, and a roll. Dinner Sides: fries, mac n cheese, three pierogies, cole slaw, applesauce, or veggies. Fried Fish Dinner - 10. Baked Fish Dinner - 11. Jumbo Fried Shrimp Dinner - 9. Six Pierogie Dinner - 7. Sandwiches and Sides also available a-la-carte for 1 to 4. Soda and Water - 1.",In the Multi Purpose Room,412.661.3100,parishcenter@straphaelpgh.org,,True,False,False,,True,44,40.478645,-79.928966
127,True,St. Mary Orthodox Church,Church,"105 S. 19th St. Pittsburgh, PA 15203",,,FRIDAYS - March 3 through April 7 11am to 7pm,"Fish Sandwich and Fries  6, Shrimp and Fries  7, Baked Fish  5, Fried Fish  5, 1 Crab Cake  5, 4 Shrimp  6, Greek Salad  4, 3 Pierogi  3, Halushki  3, Macaroni and Cheese  3, Fries  1, Cole Slaw  1, Green Beans  1, Applesauce  1, Bun  1, Dozen Frozen Pierogi  8, Soft Drink or Bottled Water  1",,412-431-6428,,True,,False,True,,True,69,40.42808,-79.978952
128,True,Stockdale Volunteer Fire Department,Unsure / N/A,316 Railroad St. Stockdale PA 15483,http://stockdalevfd.com/,"Friday Mar 17 from 11:00 AM to 7:00 PM, Friday Mar 3 from 11:00 AM to 7:00 PM, Friday Apr 14 from 11:00 AM to 7:00 PM, Friday Apr 7 from 11:00 AM to 7:00 PM, Friday Mar 31 from 11:00 AM to 7:00 PM, Friday Mar 24 from 11:00 AM to 7:00 PM, Wednesday Mar 1 from 11:00 AM to 7:00 PM, Friday Mar 10 from 11:00 AM to 7:00 PM",11-7 Ash Wednesday and all Fridays of Lent,https://www.facebook.com/stockdalevfd/photos/a.761528880555444.1073741830.737250029649996/1437486629626329/?type=3&theater,Located in the Social Hall Annex,724-938-3300,,False,True,,True,,True,213,40.08291,-79.84925
129,True,"St. Maurice, Forest Hills",Church,"2001 Ardmore Blvd. Forest Hill, PA",http://stmauriceparish.org/church/,"Friday Mar 24 from 11:00 AM to 6:00 PM, Friday Mar 31 from 11:00 AM to 6:00 PM, Friday Mar 10 from 11:00 AM to 6:00 PM, Friday Mar 3 from 11:00 AM to 6:00 PM, Friday Apr 14 from 11:00 AM to 6:00 PM, Friday Apr 7 from 11:00 AM to 6:00 PM, Friday Mar 17 from 11:00 AM to 6:00 PM",For all take-out orders please call Keane Hall kitchen at 412-723-1200 between 1:00-6:30 PM,"Fried and baked fish, shrimp, coleslaw, mac & cheese, haluski, French fries, pizza, sandwiches, and pasta. Eat-in or take-out orders. Potato & cheese and sauerkraut pierogis are available",The fish fry will be in Keane Hall,412-723-1200,,True,True,False,False,,True,40,40.421684,-79.851328
130,True,St. Ferdinand,Church,"2535 Rochester Rd Cranberry Township, PA",http://stferd.org/,"Friday Apr 7 from 11:30 AM to 1:30 PM, Friday Mar 24 from 4:00 PM to 7:00 PM, Friday Mar 17 from 11:30 AM to 1:30 PM, Friday Apr 7 from 4:00 PM to 7:00 PM, Friday Mar 3 from 4:00 PM to 7:00 PM, Friday Mar 17 from 4:00 PM to 7:00 PM, Friday Mar 3 from 11:30 AM to 1:30 PM, Friday Apr 14 from 3:00 PM to 7:00 PM, Friday Mar 10 from 11:30 AM to 1:30 PM, Friday Mar 31 from 11:30 AM to 1:30 PM, Friday Mar 10 from 4:00 PM to 7:00 PM, Friday Mar 24 from 11:30 AM to 1:30 PM, Friday Mar 31 from 4:00 PM to 7:00 PM",https://www.facebook.com/saintferdinandcranberry/photos/a.792356890806571.1073741826.345338188841779/1385459621496292/?type=3&theater,"Fish or Fish Sandwich Dinner includes a choice of Baked or Fried Fish Fillet, French Fries, Homemade Haluski or Homemade Macaroni and Cheese, and a choice of Applesauce, Coleslaw or Green Beans. Ala carte options include; Homemade Tossed Cheese Pizza $2.00; Homemade Soup of the Week $2.00; Pierogi or Haluski $3.00; Macaroni and Cheese $3.00; French Fries $2.00; Cole Slaw $1.00; Apple Sauce $1.00; Baked or Fried Fish Fillet $6.00; Fish Sandwich $7.00;  Weekly Specials; Adult Fish Dinners $10 - Child`s Dinner $6 - Pierogi Dinner $8; -10 and under-; ; Brownie and Ice Cream included with dine-in dinners; Brownie included with take-out dinners; Ice Cream donated by Ice Box Creamery-",,724-776-2899,,,True,,True,,True,107,40.698105,-80.110371
131,True,Wilkins Township VFC #3,Fire Department,"109 Powell St, East Pittsburgh, PA 15112",https://www.facebook.com/174495925973/photos/a.10151638492125974.1073741825.174495925973/10154161971400974/?type=3&theater,,every Lenten Friday from 4-7 pm; Good Friday 12-7,,,,,,,,,,True,277,40.41792,-79.839093
132,True,Rural Ridge Fire ,Fire Department,"135 Little Deer Creek Road, Rural Ridge, PA 15075",https://www.facebook.com/Rural-Ridge-Volunteer-Fire-Co-156352784403369/,,11-6 pm every Friday during Lent,https://www.facebook.com/photo.php?fbid=1553181801366548&set=o.156352784403369&type=3&theater,,,,False,,,True,,True,281,40.58562,-79.82866
133,True,American Legion Post 868,,"1100 Wildlife Lodge Rd., Lower Burrell, PA",,"Wednesday Mar 1 from 3:00 PM to 7:00 PM, Friday Apr 7 from 11:00 AM to 7:00 PM, Friday Mar 31 from 11:00 AM to 7:00 PM, Friday Mar 24 from 11:00 AM to 7:00 PM, Friday Mar 10 from 11:00 AM to 7:00 PM, Friday Mar 3 from 11:00 AM to 7:00 PM, Friday Apr 14 from 11:00 AM to 7:00 PM",,Hand-battered Icelandic cod on a fresh baked bun with fresh cut fries and homemade coleslaw- $9.00; Jumbo golden breaded butterfly shrimp basket with fresh cut fries and homemade coleslaw- $9.50; Pierogies with butter- 3 for $1.75; Mac and cheese -$1.25,,,,,,,True,,True,88,40.583376,-79.710824
134,True,"Our Lady of the Valley, Donora",Church,"1 Park Manor Rd. Donora, PA",,,"Ash Wednesday and Fridays of Lent, including Good Friday, 11:30 a.m.-6 p.m. (3-6 p.m. Good Friday)","Dinners include choice of baked or fried monster fish, breaded jumbo shrimp or crab cake dinner, with choice of french fries or pierogies, cole slaw, coffee/lemonade and dessert, for $12.75. Also, baked or fried monster fish sandwich with cole slaw is $9.75, and shrimp in a basket with cole slaw is $9.75. A la carte menu includes french fries, pierogies, haluski, cole slaw, pasta fagioli with bread and more.",,724-379-7559,,,True,False,True,,True,24,40.180659,-79.861272
135,True,Gabby Inn,Restaurant,"1488 Park Avenue, Washington, PA 15301",,"Friday Mar 24 from 7:00 AM to 11:45 PM, Friday Mar 10 from 7:00 AM to 11:45 PM, Friday Apr 7 from 7:00 AM to 11:45 PM, Friday Mar 3 from 7:00 AM to 11:45 PM, Friday Apr 14 from 7:00 AM to 11:45 PM, Friday Mar 31 from 7:00 AM to 11:45 PM, Friday Mar 17 from 7:00 AM to 11:45 PM",,,,724-222-1430,,,,True,,,True,261,40.12535,-79.846948
136,True,Beechies Place,Restaurant,"400 West Pike St Meadow Lands, PA 15347",http://www.beechiesplace.com,Friday Mar 3 from 12:00 AM to 11:45 PM,,They will have a special Lenten menu Friday during Lent.,,724-222-7079,,,True,True,True,,True,260,40.218096,-80.221588
137,True,"St. John the Baptist, Plum",Church,"444 St John St, Plum, PA 15239",http://www.stjohnthebaptistparish.net/,"Friday Mar 24 from 4:00 PM to 7:00 PM, Friday Mar 31 from 4:00 PM to 7:00 PM, Friday Mar 17 from 4:00 PM to 7:00 PM, Friday Mar 3 from 4:00 PM to 7:00 PM, Friday Apr 7 from 4:00 PM to 7:00 PM, Friday Mar 10 from 4:00 PM to 7:00 PM",,,In school cafeteria.,412-793-0555,,True,,,,,True,262,40.502991,-79.743988
138,True,"Our Lady of Joy, Holiday Park",Church,"2000 O'Block Road Holiday Park, PA",http://www.ourladyofjoy.org,"Friday Mar 3 from 4:00 PM to 7:00 PM, Friday Mar 10 from 4:00 PM to 7:00 PM, Friday Mar 17 from 4:00 PM to 7:00 PM, Friday Apr 7 from 4:00 PM to 7:00 PM, Friday Mar 31 from 4:00 PM to 7:00 PM, Friday Mar 24 from 4:00 PM to 7:00 PM, Wednesday Mar 1 from 4:00 PM to 7:00 PM, Friday Apr 14 from 4:00 PM to 7:00 PM","Ash Wednesday and Fridays of Lent, including Good Friday, 4-7 p.m","Fried or baked cod sandwich, $7; fried or baked cod a la carte, $7; haluski, $3; grilled cheese, $2; macaroni and cheese, $1;  cole slaw, $1; french fries, $1",The Fish Fry is in Father Marchukanis Hall.,412-795-3388,,,,,,,True,22,40.480007,-79.719563
139,True,"SS. Simon and Jude, Scott Township",Church,"1607 Greentree Road Scott Township, PA",http://ssjpittsburgh.org/wp-content/uploads/2017/02/fishfry-flyer.pdf,"Friday Apr 7 from 4:00 PM to 7:00 PM, Friday Mar 10 from 4:00 PM to 7:00 PM, Friday Mar 31 from 4:00 PM to 7:00 PM, Friday Mar 24 from 4:00 PM to 7:00 PM, Friday Mar 3 from 4:00 PM to 7:00 PM, Friday Mar 17 from 4:00 PM to 7:00 PM","The SSJ Fish Fry is back again this year. The event is known locally for serving homemade fresh quality food with generous portions and at great prices! Open on Ash Wednesday and Fridays of Lent from 4PM to 7PM excluding Good Friday. Held in the spacious Parish Life Center gymnasium, 1607 Greentree Road.","Extensive menu includes: fried fish dinner, $8.50; baked fish dinner, $8.50; crab cake dinner, $8.50; shrimp dinner, $8.50 fried fish sandwich, $6.75; baked fish sandwich $6.75; crab cakes, $6.50; shrimp, $6.50; Homemade items are cabbage and noodles; macaroni and cheese, perogies, and baked goods. Other menu items: Pizza, French fries, with and without cheese; fried provolone sticks; fried onion rings; cole slaw; zucchini planks; soup; lobster bisque and more. Also featuring special kids meal for $4.50.",,412-563-1353,,,,,,,True,30,40.39991,-80.063222
140,True,Manor Volunteer Fire Department,Fire Department,"44 Main St, Manor, PA 15665",http://manorvfd.org/news.html?view=1&id=76869,"Friday Mar 17 from 4:00 PM to 7:00 PM, Friday Apr 7 from 4:00 PM to 7:00 PM, Friday Mar 24 from 4:00 PM to 7:00 PM, Friday Mar 10 from 4:00 PM to 7:00 PM, Friday Mar 31 from 4:00 PM to 7:00 PM, Friday Apr 14 from 3:00 PM to 7:00 PM, Friday Mar 3 from 4:00 PM to 7:00 PM",,http://manorvfd.org/news.html?view=1&id=76869,,,,,True,,,,True,94,40.332919,-79.668822
141,True,St. Sava,Church,"901 Hartman, Mckeesport, PA",,"Friday Mar 31 from 12:00 PM to 6:00 PM, Friday Mar 10 from 12:00 PM to 6:00 PM, Friday Apr 7 from 12:00 PM to 6:00 PM, Friday Mar 24 from 12:00 PM to 6:00 PM, Friday Mar 3 from 12:00 PM to 6:00 PM, Friday Mar 17 from 12:00 PM to 6:00 PM",,http://www.stsavapa.org/files/Bulletins/St-Sava-Fish-Fry--Menu-2017.pdf,,412 -664-0820,,,True,,,,True,105,40.350403,-79.83401
142,True,St. Kilian (Cranberry),Church,"7076 Franklin Road, Cranberry Township, PA 16066",http://www.saintkilian.org/fishfry/,,"Fridays of Lent except Good Friday, 4-8 pm",,,,,,,,False,,True,278,40.683618,-80.07463
143,True,Nox's Tavern and Grill,Restaurant,"720 Blaw Ave Pittsburgh, Pennsylvania",,,,Fish platter (fish and slaw and chips): $10. Allegheny River Roll $11. Asian Shrimp skewer salad $11. Pierogies from locally owned Cop Out Pierogies. Homemade mac n cheese.,,,,,,True,True,,True,106,40.492498,-79.862612
144,True,"Holy Sepulcher, Glade Mills",Church,"1304 E. Cruikshank Road Glade Mills, PA",https://www.holysepulcher.org/uploads/media/2017_Fish_Dinner_Flyer_for_Bulletin.pdf,"Friday Mar 3 from 4:30 PM to 7:00 PM, Friday Apr 7 from 4:30 PM to 7:00 PM, Friday Mar 10 from 4:30 PM to 7:00 PM, Friday Mar 31 from 4:30 PM to 7:00 PM, Friday Mar 17 from 4:30 PM to 7:00 PM, Friday Apr 14 from 4:30 PM to 7:00 PM, Friday Mar 24 from 4:30 PM to 7:00 PM","Lenten Fish Fry every Friday from 4:30-7:00 during Lent, including Good Friday",See website,held in the school cafeteria,724-586-7610,hsc.office@zoominternet.net,False,,,False,,True,13,40.72973,-79.923069
145,True,Rupe's Roadhouse,Restaurant,"325 Camp Horne, Pittsburgh, PA 15202",http://www.roadhousech.com/home.html,Wednesday Mar 1 from 12:00 AM to 11:45 PM,Ash Wednesday and all Fridays of Lent,,,412-415-1087,,,,,,,True,275,40.51864,-80.090051
146,False,Paintertown VFC,,"1010 tray rd north huntington, pa",,,,,,,,,,,,,False,126,40.357222,-79.703751
147,False,Muse Italian Club,,"283 Muse-Bishop Road, Muse, PA",,,,,,,,,,,,,False,116,40.297357,-80.203134
148,False,Lloydsville VFD,,"208 Dickens Street, Latrobe, PA 15650",,,,,,,,,,,,,False,130,40.314658,-79.401643
149,False,Highland Hose Volunteer Fire Company,,"401 East 8th Avenue, Tarentum, PA",,,,,,,,,,,,,False,73,40.604556,-79.753166
150,False,Kiski Township Fire Department #1,,"1263 Old State Road Apollo, Pa. 15613",,,,,,,,,,,,,False,17,40.587396,-79.526314
151,False,Doublewide Grill (South Side),,"2339 East Carson Street, Pittsburgh, PA",,,,,,,,,,,,,False,84,40.428513,-79.971327
152,False,Elwood's Pub,,"163 Little Deer Creek Rd., Rural Ridge, PA",,,,,,,,,,,,,False,82,40.589245,-79.827979
153,False,St. Boniface,Church,"359 Main Street, Kersey, PA",,,,,,,,,,,,,False,56,41.361494,-78.601931
154,False,"St. Norbert, Overbrook",Church,"2413 St. Norberts St. Pittsburgh, PA",,,,,,,,,,,,,False,42,40.382435,-79.994229
155,False,Our Lady of Lourdes,Church,"1109 Main St. Burgettstown, PA",,,,,,,,,,,,,False,2,40.373218,-80.389857
156,False,"Queen of the Rosary, Glassport",Church,"530 Michigan Ave. Glassport, PA",,,,,,,,,,,,,False,26,40.327075,-79.890492
157,False,Christ United Methodist Church,Church,"44 Highland Road Bethel Park, Pa. 15102",,,,,,,,,,,,,False,7,40.348504,-80.048385
158,False,"St. Joseph, Roscoe",Church,"105 Good St. Roscoe, PA",,,,,,,,,,,,,False,36,40.078953,-79.869383
159,True,Christ the Light of the World,Church,"32 S 1st St, Duquesne, PA 15110",www.christthelightoftheworld.org,Wednesday Mar 1 from 11:00 AM to 7:00 PM,"***ASH WEDNESDAY ONLY.***  Dine-in, takeout and local delivery available. Order by phone for pickup or delivery, 412-466-8960 on Tuesday Feb 28, from 11am - 4pm and Wednesday, March 1st.","Large code sandwich on a bun, $6.50; haluski, $2 each; macaroni and cheese, $2; french fries, $2; coleslaw, $1; homemade baked goods, $1; ice tea or soda, $1; coffee or tea, 50 cents.",Holy Name Church Hall (under church),412-466-8960,,,True,,True,,True,228,40.372447,-79.845755
160,True,Original Oyster House,Restaurant,"20 Market Square, Pittsburgh, PA 15222",http://originaloysterhousepittsburgh.com/,,,http://originaloysterhousepittsburgh.com/Menu,,412-566-7925  ,,,,True,True,,True,64,40.440974,-80.001995
161,True,"Transfiguration/St. Victor, Bairdford",Church,"527 Bairdford Road Bairdford, PA",http://www.stvictors.org/,"Friday Mar 24 from 12:00 PM to 7:00 PM, Friday Mar 17 from 12:00 PM to 7:00 PM, Friday Apr 14 from 12:00 PM to 7:00 PM, Friday Apr 7 from 12:00 PM to 7:00 PM, Friday Mar 31 from 12:00 PM to 7:00 PM, Friday Mar 3 from 12:00 PM to 7:00 PM, Friday Mar 10 from 12:00 PM to 7:00 PM",,https://uploads.weconnect.com/mce/a4c36ded9dbf60a5a9dceb0d0a1e3b17ac92f8cf/2017%20FF%20Menu.pdf,,724-265-4017,,,True,,True,,True,53,40.633742,-79.873401
162,True,St. Elizabeth Anne Seton,Church,"200 Leger Road North Huntingdon, PA",https://seasnh.org,"Friday Mar 31 from 4:00 PM to 7:00 PM, Friday Apr 7 from 4:00 PM to 7:00 PM, Friday Mar 24 from 4:00 PM to 7:00 PM, Friday Apr 14 from 3:00 PM to 7:00 PM, Friday Mar 17 from 4:00 PM to 7:00 PM, Friday Mar 3 from 4:00 PM to 7:00 PM, Friday Mar 10 from 4:00 PM to 7:00 PM",,https://stelizannsetonnhpa.files.wordpress.com/2014/01/fish-fry-menu-2017.pdf,Mack Hall,724-864-6364,,,True,,False,,True,133,40.347939,-79.761435
163,True,St. Bernadette (Monroeville),Church,"245 Azalea Drive, Monroeville, PA 15146",http://stbfestival.com/2017/fishfry/,,Fridays of Lent except Good Friday 4:30-7,See http://stbfestival.com/2017/fishfry/Menu%20Handout.pdf,Dinners Served in the Lourdes Center Dining Hall ,412-843-0668,,,True,,False,True,True,279,40.441257,-79.771866
164,True,Daisytown Community Center,Community Organization,"3 Main St, Daisytown, Pennsylvania 15427",https://www.facebook.com/events/223183358152585/,"Friday Mar 24 from 11:00 AM to 6:00 PM, Friday Mar 31 from 11:00 AM to 6:00 PM, Friday Apr 14 from 11:00 AM to 6:00 PM, Friday Mar 17 from 11:00 AM to 6:00 PM, Friday Apr 7 from 11:00 AM to 6:00 PM",Every Friday from 11am to 6pm starting March 17th to April 14th. ,"10 Fish Dinner- Includes 3 pieces of whiting fish, fries, coleslaw and dessert. 5 Sandwich with 2 pieces of fish, no sides. Drinks available for purchase. Dine in or take out",,Sonya Miller 724-518-0596 or Darra Owens 724-740-9055,,,True,,True,,True,263,40.055582,-79.937363
165,True,"Our Lady of the Miraculous Medal, Meadow Lands",Church,"300 Pike St, Meadow Lands, PA",http://miraculousmedalchurch.org/Fish-Fry-2017,"Friday Mar 24 from 11:00 AM to 7:00 PM, Friday Mar 10 from 11:00 AM to 7:00 PM, Wednesday Mar 1 from 11:00 AM to 7:00 PM, Friday Mar 17 from 11:00 AM to 7:00 PM, Friday Mar 3 from 11:00 AM to 7:00 PM, Friday Apr 7 from 11:00 AM to 7:00 PM, Friday Mar 31 from 11:00 AM to 7:00 PM","Ash Wednesday and Fridays of Lent, except Good Friday, 11 a.m.-7:30 p.m. Call 724-228-8575 for takeout. Online orders via website.","Menu features Panko breaded cod, deep-fried in heart healthy tri-fry oil that is cholesterol- and trans fat-free. Other healthier options include baked cod or salmon, Maine lobster rolls and tuna melts. Also featuring homemade crab cakes, jumbo shrimp, and cabbage and noodles. Back by popular demand is seafood pizza. Side orders include green beans, baked potatoes, french fries, cole slaw, and macaroni and cheese. Featuring breads from Breadworks and homemade desserts.",,724-222-1911,olmmfishfry@gmail.com,True,True,,True,,True,237,40.219197,-80.220646
166,True,Bell Township VFD,Fire Department,"207 Main Street, Salina, PA 15680",https://www.facebook.com/belltwpvfd,"Friday Mar 31 from 4:00 PM to 6:30 PM, Friday Apr 14 from 4:00 PM to 6:30 PM, Friday Mar 3 from 4:00 PM to 6:30 PM, Friday Apr 7 from 4:00 PM to 6:30 PM, Friday Mar 17 from 4:00 PM to 6:30 PM, Friday Mar 24 from 4:00 PM to 6:30 PM, Friday Mar 10 from 4:00 PM to 6:30 PM, Wednesday Mar 1 from 4:00 PM to 6:30 PM","4-6:30 PM, Ash Wednesday and Fridays of Lent",see website for menu,,,,,True,False,False,,True,157,40.521916,-79.499104
167,True,Coleman's Fish Market,Unsure / N/A,"2226 Market St, Wheeling, WV 26003",https://www.facebook.com/Colemans-Fish-Market-369493546495465/,,,,,,,,True,,True,,True,296,40.059102,-80.724067
168,False,Becker's Cafe,,315 Olivia Street McKees Rocks PA,,,,,,,,,,,,,False,166,40.474652,-80.057127
169,False,Cambria Suites - Reflect Bistro and Bar,,"451 Racetrack Road, Washington, PA 15301",,,,,,,,,,,,,False,173,40.221346,-80.208394
170,False,UPTown diner (LUNCH ONLY),,"4779 William Flynn Hwy Allison Park, PA 15101",,,,,,,,,,,,,False,156,40.59651,-79.948065
171,False,Shiloh Grill,,"123 Shiloh Street, Pittsburgh, PA",,,,,,,,,,,,,False,63,40.430918,-80.006991
172,False,PJ's Deli,,"Bower Hill at McLaughlin Run, Bridgeville, PA",,"Wednesday Mar 1 from 9:00 AM to 6:00 PM, Friday Apr 7 from 3:00 PM to 7:00 PM, Friday Mar 10 from 3:00 PM to 7:00 PM, Friday Apr 14 from 3:00 PM to 7:00 PM, Friday Mar 31 from 3:00 PM to 7:00 PM, Friday Mar 17 from 3:00 PM to 7:00 PM, Friday Mar 24 from 3:00 PM to 7:00 PM, Friday Mar 3 from 3:00 PM to 7:00 PM",,,,,,,,,,,False,70,40.35834,-80.105278
173,False,Doublewide Grill (Mars/Cranberry),,"100 Adams Shoppes, Cranberry, PA",,,,,,,,,,,,,False,86,40.687426,-80.056449
174,False,Coy's Store & Pizza Shop,,"1919 Route 422 Hwy E Penn Run, Pennsylvania 15765",,,,,,,,,,,,,False,135,40.572685,-78.963178
175,False,Labriola's Italian Market,,"121 Hulton Road Verona, Pa 15147",,,,,,,,,,,,,False,111,40.484477,-79.81999
176,False,Patterson Township Vol. Fire Co.,,"407 Darlington Rd, Beaver Falls, PA 15010",,,,,,,,,,,,,False,76,40.745071,-80.333821
177,False,Bioni-Yeckel VFW Post 8308,,"446 Georgetown Rd. Lawrence, Pa. 15055",,,,,,,,,,,,,False,1,40.305571,-80.126931
178,False,Greenock VFC,,"1002 Greenock Buena Vista Rd. Greenock, PA 15047",,,,,,,,,,,,,False,10,40.309443,-79.796407
179,False,My Sister's Bistro,,"7205 State Route 22 Greensburg, Pennsylvania",,,,,,,,,,,,,False,144,40.402715,-79.524097
180,False,St. Joseph Lucinda,Church,"112 Rectory Ln, Lucinda, PA 16235",,,,,,,,,,,,,False,59,41.310899,-79.365143
181,False,Eastern Area Prehospital Services,,"192 11th Street Turtle Creek, PA 15145",http://www.easternareaems.com/,,Cannot find any information on web.,,,,,,,,,,False,8,40.403679,-79.822413
182,False,McGinnis Sisters,,"3825 Saw Mill Run Blvd, Pittsburgh, PA 15227",,,,,,,,,,,,,False,121,40.369675,-79.982075
183,False,Fairmont-Hahntown VFD,,"890 Rose St, Irwin, PA 15642",,,,,,,,,,,,,False,93,40.3162,-79.722499
184,False,"St. John the Baptist Orthodox, East Pittsburgh",Church,"211 Cable Avenue, East Pittsburgh, PA",https://www.facebook.com/StJohnOrthodoxEastPitt,,Could not find good info on this site or anywhere else on the site.,,,412-824-0246,,,,,,,False,175,40.399919,-79.836427
185,False,"Prince of Peace, South Side",Church,"81 S. 13th St. Pittsburgh, PA",http://www.princeofpeacepittsburgh.org/,,ASH WEDNESDAY ONLY,,,,,,,,,,False,25,40.428951,-79.985145
186,True,The Pub Chip Shop,,"1830 E Carson St Pittsburgh, Pennsylvania",http://www.thepubchipshop.com/,,,http://www.thepubchipshop.com/food/,,412-381-2447,,True,True,True,True,True,True,143,40.428466,-79.979369
187,True,St. Joseph,Church,"17735 Bennetts Valley Highway, Force, PA",http://www.parishesonline.com/find/st-joseph-church-15841,,call to verify times and menu,,,814-787-4151,,,,,True,,True,58,41.257947,-78.501687
188,True,North Irwin VFC,Fire Department,"2nd St & Broadway Ave North Irwin, Pennsylvania 15642",,"Friday Mar 10 from 4:00 PM to 8:00 PM, Friday Mar 17 from 4:00 PM to 8:00 PM, Friday Apr 7 from 4:00 PM to 8:00 PM, Friday Apr 14 from 4:00 PM to 8:00 PM, Friday Mar 31 from 4:00 PM to 8:00 PM, Friday Mar 3 from 4:00 PM to 8:00 PM, Friday Mar 24 from 4:00 PM to 8:00 PM",,http://northirwinfire.com/news.html?view=1&id=72836,,724-863-9889,,,True,,False,,True,91,40.337252,-79.710202
189,True,Bulldog Pub,Restaurant,"1818 Morningside Ave. Pittsburgh, PA 15206",https://www.facebook.com/BulldogPubPGH/,"Friday Apr 14 from 12:00 PM to 8:00 PM, Friday Apr 7 from 12:00 PM to 8:00 PM, Friday Mar 17 from 12:00 PM to 8:00 PM, Friday Mar 10 from 12:00 PM to 8:00 PM, Friday Mar 3 from 12:00 PM to 8:00 PM, Friday Mar 31 from 12:00 PM to 8:00 PM, Friday Mar 24 from 12:00 PM to 8:00 PM",,,,412-404-2775,,,True,True,True,,True,171,40.486705,-79.92653
190,True, Economy Volunteer Fire Department 1 Station 69,Fire Department,"3308 Conway Wallrose Rd, Economy, PA 15042",https://u.nya.is/wwqytt.jpg,"Friday Mar 10 from 4:00 PM to 7:00 PM, Friday Mar 3 from 4:00 PM to 7:00 PM, Friday Mar 17 from 4:00 PM to 7:00 PM, Friday Mar 31 from 4:00 PM to 7:00 PM, Friday Mar 24 from 4:00 PM to 7:00 PM, Friday Apr 14 from 4:00 PM to 7:00 PM, Friday Apr 7 from 4:00 PM to 7:00 PM","Every Friday during Lent, 4-7pm. For takeout, please call ahead: 724-266-3714 or 724-266-1116.","Fish, Crab Cakes, Fried Shrimp, Chicken, Coleslaw, Mac n Cheese, French Fries. See website for menu.",Handicap accessible: Please let parking lot attendants know and they will park you in the handicap location.,724-266-3714 or 724-266-1116,,False,True,True,False,True,True,297,40.632601,-80.160665
191,True,SS John and Paul,Church,"2586 Wexford Bayne Rd, Franklin Park",www.stsjohnandpaul.org,"Friday Mar 17 from 4:00 PM to 7:30 PM, Friday Mar 10 from 4:00 PM to 7:30 PM, Friday Mar 24 from 4:00 PM to 7:30 PM, Friday Mar 3 from 4:00 PM to 7:30 PM, Friday Apr 7 from 4:00 PM to 7:30 PM, Wednesday Mar 1 from 4:00 PM to 7:30 PM, Friday Mar 31 from 4:00 PM to 7:30 PM",,See Website,,,fishfry@stsjohnandpaul.org,,,,,,True,264,40.608199,-80.105147
192,False,Sciullo's 910 Deli and Catering,,"4358 Gibsonia Road, Gibsonia, PA",,,,,,,,,,,,,False,72,40.621799,-79.920841
193,True,Rennerdale VFD,Fire Department,"30 Suburban Ave., Rennerdale, PA 15106",http://www.rennerdalevfd.com,"Friday Mar 24 from 4:30 PM to 7:00 PM, Friday Apr 7 from 4:30 PM to 7:00 PM, Friday Mar 10 from 4:30 PM to 7:00 PM, Friday Mar 3 from 4:30 PM to 7:00 PM, Friday Mar 17 from 4:30 PM to 7:00 PM, Friday Mar 31 from 4:30 PM to 7:00 PM","Every fridays from March 3-April 7, 4:30-7pm. Takeout Orders: 412-276-9652. See website for complete menu.","Hand-breaded Fish, Baked Fish, Shrimp, Kids Chicken, plus Sides. ",,412-276-9652,,False,True,False,False,,True,65,40.397699,-80.142647
194,True,St. Mary (Herman),Church,"821 Herman Road, Butler, PA 16002",https://www.facebook.com/St.MarysHermanFishFries/,,,$10 dinners,,,,,,,,,True,298,40.830089,-79.81627
195,True,Piper's Pub,Restaurant,"1828 E Carson St., Pittsburgh, PA 15203",http://www.piperspub.com/,,,,,412-381-3977,,,True,True,True,True,True,305,40.428427,-79.979431
196,True,"St. Winifred, Mount Lebanon",Church,"550 Sleepy Hollow Road Pittsburgh, PA",http://www.stwinifred.org/,"Friday Mar 31 from 4:00 PM to 7:00 PM, Friday Mar 3 from 4:00 PM to 7:00 PM, Friday Apr 14 from 3:00 PM to 7:00 PM, Friday Apr 7 from 4:00 PM to 7:00 PM, Friday Mar 10 from 4:00 PM to 7:00 PM, Friday Mar 17 from 4:00 PM to 7:00 PM, Friday Mar 24 from 4:00 PM to 7:00 PM",,"Fried and baked fish, crab cakes and shrimp dinners, $9, and includes cole slaw, french fries or macaroni and cheese, roll, dessert and beverage. A la carte menu includes pizza, clam chowder, macaroni and cheese, french fries, onion rings, haluski, cole slaw, salad, applesauce, buttered noodles, crab cakes, breaded shrimp and stewed tomatoes. ",Benedict Hall,412-563-1415,,,True,,False,,True,52,40.375395,-80.023619
197,True,Chippewa VFD,Fire Department,"2568 Darlington Rd, Beaver Falls, PA 15010",https://www.facebook.com/Chippewa-Township-Volunteer-Fire-Department-Beaver-Falls-PA-348825468612/,"Friday Apr 14 from 11:00 AM to 7:00 PM, Friday Apr 7 from 11:00 AM to 7:00 PM, Friday Mar 31 from 11:00 AM to 7:00 PM, Friday Mar 17 from 11:00 AM to 7:00 PM, Friday Mar 10 from 11:00 AM to 7:00 PM, Friday Mar 3 from 11:00 AM to 7:00 PM, Friday Mar 24 from 11:00 AM to 7:00 PM",All you can eat fish dinner (for eat in only). ," Dinner includes a large piece of haddock, coleslaw, your choice of pierogies, fries or mac &Cheese and a drink for $11.00. Also available are chicken tenders and children's portions.",,724-847-0391,,,True,,True,,True,112,40.773576,-80.376624
198,True,Norvelt VFD,,"2325 Mount Pleasant Rd Mount Pleasant, Pennsylvania",,"Friday Apr 7 from 3:00 PM to 7:00 PM, Friday Mar 24 from 3:00 PM to 7:00 PM, Friday Mar 10 from 3:00 PM to 7:00 PM, Friday Mar 3 from 3:00 PM to 7:00 PM, Friday Mar 17 from 3:00 PM to 7:00 PM, Friday Apr 14 from 11:00 AM to 11:00 PM, Friday Mar 31 from 3:00 PM to 7:00 PM",,https://www.facebook.com/187103461330962/photos/a.247929761914998.54354.187103461330962/1384367308271232/?type=3&theater,,724-423-8558,,,True,,,,True,113,40.208478,-79.497146
199,True,Coraopolis Elks Lodge #1090,Community Organization,"1150 Stoops Ferry Road, Coraopolis PA 15108",,Friday Mar 3 from 12:00 AM to 11:00 PM,Fish Frys on Fridays during Lent. Call for more information.,,,412-264-0846,elks@elks1090.com,,,,,,True,308,40.541482,-80.213421
200,True,"Our Lady of Mount Carmel, Scheffner Hall",Church,"1553 East Grandview Blvd. Erie, PA",,,,"Fried fish and/or cheese pierogi. Adult $10, Child $5. Includes choice of French Fries, potato salad, or mac and cheese, coleslaw or green beans and ice cream dessert. Takeout 50 cents extra.",,814-825-7313,,,True,,,,True,265,42.114623,-80.010836
201,True,Our Lady of the Lake,Church,"128 Sunset Drive, Edinboro PA",,,"March 3, 17, 24, 31, and April 7","baked or fried fish. adult $10, child donation $5. includes baked potato or mac and cheese, coleslaw, green beans, bread, refreshments, and dessert. Tickets and takeout at the door.",,,,,,,,,True,266,41.874356,-80.136584
202,True,Spitfirez,Restaurant,"316 Airbrake Avenue, Wilmerding, PA",http://www.spitfirez.com/,,Starts March 1st as part of the regular menu,1/2 pound Haddock sandwich and platter with fryz and slaw.,,412-824-3922,,,,False,True,,True,80,40.39542,-79.806066
203,True,"SS Peter and Paul Byzantine, Social Hall",Church,"3415 Wallace St. Erie, PA",,,"March 3, 17, 31   4:30-7","Baked fish and/or pierogi. Adult $10, child 6-12 $5, child under 6 free. Includes choice of baked cod, potato and cheese pierogi or combo. Nut roll bake sale!",,814-825-8140,,,True,,False,,True,268,42.108712,-80.057359
204,False,Labriola's Italian Market,,"4039 Monroeville Blvd Monroeville, Pa 15146",,,,,,,,,,,,,False,109,40.435608,-79.768917
205,True,"St. Malachy, Kennedy Township",Church,"343 Forest Grove Road Kennedy Township, PA",www.stmalachypgh.org,"Friday Mar 17 from 12:00 PM to 7:00 PM, Wednesday Mar 1 from 12:00 PM to 7:00 PM, Friday Apr 7 from 12:00 PM to 7:00 PM, Friday Mar 3 from 12:00 PM to 7:00 PM, Friday Mar 10 from 12:00 PM to 7:00 PM, Friday Mar 31 from 12:00 PM to 7:00 PM, Friday Mar 24 from 12:00 PM to 7:00 PM, Friday Apr 14 from 12:00 PM to 7:00 PM","Good Friday has limited menu, limited hours. For takeout call 412-771-5483.","Menu includes one-pound fish sandwich, baked fish, tuna salad sandwich, crab cake sandwich, shrimp, pierogies, macaroni and cheese, cabbage and noodles, cole slaw and french fries.",In School Cafeteria,412-771-0848,,,True,False,True,,True,38,40.47763,-80.10313
206,True,St Margaret,Church,310 Mansfield Ave,www.stmargparish.org,"Friday Mar 24 from 4:00 PM to 7:00 PM, Friday Mar 10 from 4:00 PM to 7:00 PM, Friday Apr 7 from 4:00 PM to 7:00 PM, Friday Mar 3 from 4:00 PM to 7:00 PM, Friday Mar 31 from 4:00 PM to 7:00 PM, Friday Mar 17 from 4:00 PM to 7:00 PM","For takeout, call 412-922-7279.","Sandwich menu includes fried and baked fish, crab cake and fish parmesan. Dinner menu includes crab cakes, fried and baked fish, shrimp in a basket. Family special is $30, and includes four fish sandwiches, french fries and cole slaw. A la carte items include hand-cut french fries, baked potato, macaroni and cheese, pizza boat, pasta of the week, cole slaw and vegetable. ",School Cafeteria,412-922-4765,,False,True,False,False,,True,270,40.422528,-80.047023
207,True,St. Maria Goretti,Church,"321 Edmond St, Pittsburgh, PA 15224",,"Friday Mar 3 from 4:00 PM to 7:00 PM, Wednesday Mar 1 from 4:00 PM to 7:00 PM, Friday Mar 10 from 4:00 PM to 7:00 PM, Friday Apr 7 from 4:00 PM to 7:00 PM, Friday Mar 24 from 4:00 PM to 7:00 PM, Friday Mar 17 from 4:00 PM to 7:00 PM, Friday Mar 31 from 4:00 PM to 7:00 PM",,"Weekly dinner choices include baked or fried fish or shrimp, with the following side dishes: March 1, french fries and cole slaw; March 3, spaghetti with garlic and oil, broccoli; March 10, french fries and cole slaw; March 17, macaroni and cheese, and vegetable; March 24, spaghetti with garlic and oil, broccoli; March 31, Ditaline (pasta with peas); April 7, french fries and cole slaw. French fries are available as an alternative to special weekly side dishes. All meals include drink. Cost is $10 for adult dinner, $7 for children and $8 for fish sandwich.",Friendship Campus,412-682-2509,,,True,,,False,True,271,40.461709,-79.949893
208,False,Hempfield #2 VFD,,"421 Thornton, Greensburg, PA",,,,,,,,,,,,,False,149,40.293724,-79.529453
209,True,Bunola Volunteer Fire Department,Fire Department,"366 Bunola River Road Bunola, PA 15020",http://www.angelfire.com/pa5/bunolafire/,"Friday Mar 31 from 11:00 AM to 6:00 PM, Wednesday Mar 1 from 11:00 AM to 6:00 PM, Friday Apr 7 from 11:00 AM to 6:00 PM, Friday Apr 14 from 11:00 AM to 6:00 PM, Friday Mar 17 from 11:00 AM to 6:00 PM, Friday Mar 10 from 11:00 AM to 6:00 PM, Friday Mar 3 from 11:00 AM to 6:00 PM, Friday Mar 24 from 11:00 AM to 6:00 PM",Bunola Fire Facebook page: https://www.facebook.com/Bunola-VFD-121929557856047/,Fish Sandwich 8.00 Fish and Fries 9.00 Fish Platter 11.00 (fish fries and cole slaw) Popcorn Shrimp Patter 7.00 Popcorn Shrimp 4.00 Perogies (6) 4.00 Sides Fries cole slaw and Mac and Cheese 2.00 Halushki 2.50,,412-384-9940,,False,,,True,,True,267,40.23729,-79.95061
210,True,McClaren's Bar,Restaurant,"2000 Whitaker Way, Munhall, PA",https://www.facebook.com/McClarensBarPgh/,"Friday Mar 24 from 11:00 AM to 11:00 PM, Friday Apr 7 from 11:00 AM to 11:00 PM, Friday Mar 31 from 11:00 AM to 11:00 PM, Friday Mar 17 from 11:00 AM to 11:00 PM, Friday Apr 14 from 11:00 AM to 11:00 PM, Friday Mar 10 from 11:00 AM to 11:00 PM, Friday Mar 3 from 11:00 AM to 11:00 PM",,https://www.facebook.com/McClarensBarPgh/photos/a.901674729917897.1073741829.827595107325860/1269636793121687/?type=3&theater,,412-228-9553,,,True,,True,,True,299,40.403115,-79.890151
211,True,Holy Family (Creighton),Church,"787 Freeport Rd., Creighton, PA 15030",,,,,,,,,,,,,True,306,40.58093,-79.779311
212,True,"St. Valentine, Bethel Park",Church,"2710 Ohio St. Bethel Park, PA",,"Friday Apr 14 from 4:00 PM to 7:00 PM, Friday Apr 7 from 4:00 PM to 7:00 PM, Friday Mar 31 from 4:00 PM to 7:00 PM, Friday Mar 17 from 4:00 PM to 7:00 PM, Friday Mar 24 from 4:00 PM to 7:00 PM, Friday Mar 3 from 4:00 PM to 7:00 PM, Friday Mar 10 from 4:00 PM to 7:00 PM",,"Menu features beer-battered cod sandwich, Nantucket baked cod, fried butterfly shrimp and pierogie dinners. Also featuring sides and dessert. Cost: $8-$8.50 for adult dinners; $4 for child fried cod sandwich; $1 entree discount for seniors over age 60 (dine-in only); $8.50 for sandwich.  https://uploads.weconnect.com/mce/5d0fb669fb61cd51405bd09c1ac7e36a7407de8d/Fish%20Fry%20Menu.jpg",,412-851-9176,,,True,,False,,True,51,40.330198,-80.031322
213,True,St Louise de Marillac,Church,"320 McMurray Road, Upper St Clair",https://stlouisedemarillac.org/wp-content/uploads/2015/02/FFF_menu_2017_v1.pdf,"Friday Mar 31 from 4:30 AM to 7:30 PM, Friday Apr 7 from 4:30 AM to 7:30 PM, Friday Mar 10 from 4:30 AM to 7:30 PM, Friday Mar 24 from 4:30 AM to 7:30 PM, Friday Mar 3 from 4:30 AM to 7:30 PM, Friday Mar 17 from 4:30 AM to 7:30 PM",,"Menu offers a variety of fried and baked fish options, including homemade lump crab cakes, fish tacos and pizza. There is also a featured pasta from local Italian restaurant Pasta Too. Also offering different soups such as crab and shrimp bisque, tomato basil and lobster bisque. Desserts are provided by Bethel Bakery and Kona Ice. Adult dinners are $10, and fish sandwiches are $9.",,412-833-1010,,False,True,True,False,True,True,269,40.315309,-80.071657
214,True,Aliquippa Croatian Center,Community Organization,"2365 Concord Street, Aliquippa PA 15001",http://www.aliquippacroatiancenter.com,"Friday Mar 10 from 11:00 AM to 8:00 PM, Friday Apr 14 from 11:00 AM to 8:00 PM, Friday Mar 17 from 11:00 AM to 8:00 PM, Friday Mar 31 from 11:00 AM to 8:00 PM, Friday Mar 3 from 11:00 AM to 8:00 PM, Friday Mar 24 from 11:00 AM to 8:00 PM, Friday Apr 7 from 11:00 AM to 8:00 PM",,See website for menu.,,724-375-3021,,,True,True,True,,True,309,40.60681,-80.284983
215,True,St Alphonsus Wheeling And St John Benwood Combined Fish Fry,Church,"2111 Market St, Wheeling, WV",http://stalswheeling.org/,"Wednesday Mar 1 from 11:00 AM to 6:00 PM, Friday Apr 7 from 11:00 AM to 6:00 PM, Friday Mar 24 from 11:00 AM to 6:00 PM, Friday Mar 3 from 11:00 AM to 6:00 PM, Friday Mar 17 from 11:00 AM to 6:00 PM, Friday Mar 31 from 11:00 AM to 6:00 PM, Friday Apr 14 from 11:00 AM to 6:00 PM, Friday Mar 10 from 11:00 AM to 6:00 PM","Eat in or take out. This is a cooperative effort between the Parishes of St Alphonsus and St John to share good food, good times, and community. Your support and patronage is welcome and truly appreciated.","Menu consists of fish sandwiches, french fries, macaroni and cheese, cabbage and noodles, cole slaw, deserts, and refreshments. Eat in or take out.",At the St. Alphonsus Parish Hall (Gym),304-905-6589 takeout,,False,True,,True,,True,272,40.060984,-80.723752
216,True,St. Mary of the Assumption (Glenshaw),Church,"2510 Middle Road, Glenshaw, PA 15116",http://www.stmaryglenshaw.org/,"Friday Mar 31 from 4:30 PM to 7:00 PM, Friday Mar 3 from 4:30 PM to 7:00 PM, Friday Mar 17 from 4:30 PM to 7:00 PM, Friday Apr 7 from 4:30 PM to 7:00 PM, Friday Mar 24 from 4:30 PM to 7:00 PM, Friday Mar 10 from 4:30 PM to 7:00 PM",,"Adults $10.00 Seniors $9.00 Children $6.00 (4-10 yrs) Children $4.00 (3 and Under)  Adults and Seniors: Choice of Baked or Fried Breaded Fish Filet with Sandwich Bun or Dinner Roll Choice of Three Sides: Baked Potato, Mac & Cheese, Green Beans, Corn, Coleslaw, or Applesauce  Children: Choice of Pizza, Baked, or Fried Fish Fillet with Sandwich Bun or Dinner Roll  and Choice of Two Sides listed above",,412-684-1112,,,True,,False,,True,300,40.554213,-79.932372
217,True,St. Paul's Episcopal,Church,"1066 Washington Road, Mt. Lebanon, PA",http://www.stpaulspgh.org/blog/fish-fry-time-/,"Friday Mar 24 from 5:00 PM to 7:30 PM, Friday Mar 10 from 5:00 PM to 7:30 PM, Friday Apr 7 from 5:00 PM to 7:30 PM",Note dates.,,,412-780-7606,,,True,,False,,True,307,40.370768,-80.050178
218,True,St Michael Parish,Church,"1221 National Road, Wheeling, Wv",stmikesparishschool.org,"Friday Mar 10 from 4:00 PM to 7:00 PM, Friday Apr 7 from 4:00 PM to 7:00 PM, Friday Mar 17 from 4:00 PM to 7:00 PM, Friday Mar 24 from 4:00 PM to 7:00 PM, Wednesday Mar 1 from 4:00 PM to 7:00 PM, Friday Mar 31 from 4:00 PM to 7:00 PM, Friday Mar 3 from 4:00 PM to 7:00 PM",,"Baked Fish Dinner - 7 Six Piece Shrimp Dinner - 7 Fish Dinner - 7 Includes Two Sides and a Roll. Side Dishes include French Fries - 1 Green Beans - 1 Mac and Cheese - 1 Cole Slaw - 1 Baked Potato - 1 There are also a la carte items including pizza - 2 and grilled cheese - 2. Soda, bottled water, and coffee - 1. ",,304-242-1560 takeout,,False,True,False,False,,True,273,40.073288,-80.683142
219,True,St. Peter/Our Lady Queen of Peace (Northside),Church,"907 Middle St, Pittsburgh, PA 15212",http://www.stpeterparish.org/lenten-fish-dinners,"Friday Mar 24 from 4:00 PM to 6:30 PM, Friday Mar 3 from 4:00 PM to 6:30 PM, Friday Mar 31 from 4:00 PM to 6:30 PM, Friday Mar 10 from 4:00 PM to 6:30 PM, Friday Apr 7 from 4:00 PM to 6:30 PM, Friday Mar 17 from 4:00 PM to 6:30 PM",,http://www.stpeterparish.org/lenten-fish-dinners,Note that you must use the Middle Street address for GPS navigation. The fish fry is located at Our Lady Queen of Peace facilities at Middle and Suismon.,412-321-2499,,,True,,False,,True,301,40.455751,-79.999768
220,True,Pitcairn Hose Company #1,Fire Department,"100 Center Ave., Pitcairn, PA",,,Free in town delivery.  No times listed. Ash Wednesday and every Friday until Good Friday,,Behind Sunoco on Broadway,412-372-7040,,False,True,False,,,True,146,40.401789,-79.777859
221,True,Pappy J's Monaca,Restaurant,"2000 Marshall rd, monaca, pa 15061",,"Friday Mar 3 from 12:00 PM to 10:00 PM, Friday Mar 31 from 12:00 PM to 10:00 PM, Friday Apr 7 from 12:00 PM to 10:00 PM, Friday Mar 10 from 12:00 PM to 10:00 PM, Friday Apr 14 from 12:00 PM to 10:00 PM, Friday Mar 17 from 12:00 PM to 10:00 PM",,,,724-728-8900,,,True,,True,,True,302,40.678865,-80.272546
222,True,"Ellwood City Loyal Order of the Moose, Lodge #93",Community Organization,"1400 Factory Ave, Ellwood City, PA 16117",http://ellwoodcitymoose.com/index.htm,"Friday Apr 7 from 4:00 PM to 9:00 PM, Friday Mar 31 from 4:00 PM to 9:00 PM, Friday Mar 17 from 4:00 PM to 9:00 PM, Friday Mar 3 from 4:00 PM to 9:00 PM, Friday Mar 10 from 4:00 PM to 9:00 PM, Friday Mar 24 from 4:00 PM to 9:00 PM, Friday Apr 14 from 4:00 PM to 9:00 PM",Kitchen Closes at 9: Last order at 8:45," Fish Dinner $9.50 Battered or Baked ~Fries or Mac N Cheese ~Coleslaw or Small Side Salad  Fish on a Dish $7.50 Chicken Planks (4) $7.50 Fish Nuggets $7.50 Fish Sandwich $7.95 Add Cheese $1.00 Mac N Cheese or Fries $1.25 Coleslaw $1.00 Small Side Salad $2.00 Season Waffle Fries $4.50 Steak Fries $4.50  Fish Nugget Salad $9.50 Salad, Mixed Veggie, Olives, Onions, Banana Pepper, Egg, Fries, Cheese  Breaded Shrimp (6) with Fries $7.50  Big Al Steak Sandwich w/ Fries $9.00 Italian Bread, 12 ounce steak, Provolone Cheese, Grilled Peppers and Onions  New England Clam Chowder  Cup  $4.00 Bowl $6.50 https://www.facebook.com/119948908081212/photos/a.208577879218314.50494.119948908081212/1268903269852431/?type=3&theater",,724-758-9254,,,True,True,False,,True,303,40.859377,-80.300528
223,True,St. Sebastian,Church,"311 Siebert Rd., Pittsburgh, PA",https://www.ssebastianparish.org/,"Friday Mar 31 from 4:30 PM to 7:00 PM, Friday Mar 24 from 4:30 PM to 7:00 PM, Friday Mar 3 from 4:30 PM to 7:00 PM, Friday Mar 10 from 4:30 PM to 7:00 PM",online orders accepted,https://media.wix.com/ugd/ae8b04_f0a44a09191641a1baf93cd357551b1b.pdf,,412-364-7171 ext. 8326,,,True,,True,,True,304,40.529744,-80.011604
224,True,Immaculate Heart of Mary Church,Church,"3058 Brereton St, Pittsburgh, PA 15219",www.immaculateheartpolishhill.com,"Friday Mar 17 from 3:00 PM to 6:30 PM, Friday Mar 24 from 3:00 PM to 6:30 PM, Friday Mar 31 from 3:00 PM to 6:30 PM, Friday Apr 7 from 3:00 PM to 6:30 PM, Wednesday Mar 1 from 3:00 PM to 6:30 PM, Friday Mar 3 from 3:00 PM to 6:30 PM, Friday Mar 10 from 3:00 PM to 6:30 PM",,"Dinners include fish sandwich, french fries and cole slaw. Also includes pierogies, haluski, soup and macaroni and cheese. Cost is 9 for adult dinner, 8 for sandwich.",Rosary Hall,412-621-5441,,,True,False,,True,True,241,40.454426,-79.974169
225,False,Pirollos Deli,,"307 Hulton Rd, Verona, Pa. 15147",,,,,,,,,,,,,False,150,40.489741,-79.819455
226,False,Pizzarita,,"580 Burchfield Rd., Allison Park, PA",,,,,,,,,,,,,False,79,40.544537,-79.962887
227,True,Arnold Volunteer Fire Company,Fire Department,"601 Drey St., Arnold, PA",,,Call for details,,In the Public Safety Building,724-335-8130,,,,,,,True,87,40.580214,-79.767803
228,True,Holy Spirit (Millvale),Church,"608 Farragut Street Millvale, PA 15209",http://www.holyspiritmillvale.org,Friday Apr 14 from 11:00 AM to 6:30 PM,"Good Friday only, Take-out:  7 am-6 pm; Eat-in:  11 am-6:30 pm",,,412-821-4424,office@holyspiritmillvale.org,,True,,True,,True,14,40.480066,-79.976049
229,False,"Our Lady of Peace, Conway",Church,"1000 Third Ave. Conway, PA",,,,,,,,,,,,,False,23,40.660245,-80.236547
230,False,St. Paul's Episcopal Church,Church,"130 West Main Street Monongahela, PA 15063",,,,,,,,,,,,,False,114,40.200669,-79.923358
231,False,St. Stephen's McKeesport,Church,"220 8th St., Mckeesport, PA",,,,,,,,,,,,,False,78,40.347693,-79.865123
232,False,Beaver Falls Elks Lodge 348,,1000 6th avenue Beaver Falls Pa 15010,,,,,,,,,,,,,False,165,40.750738,-80.317942
233,False,Lone Pine VFD Station 50,,330 weaver run Rd Washington pa 15301,,,,,,,,,,,,,False,115,40.079342,-80.183748
234,True,St. Mary of the Mount Church - Sullivan Hall,Church,"131 Bigham, Pittsburgh, PA",http://www.smomp.org,"Friday Mar 3 from 4:30 AM to 7:30 PM, Friday Apr 7 from 4:30 AM to 7:30 PM, Friday Mar 17 from 4:30 AM to 7:30 PM, Friday Apr 14 from 4:30 AM to 7:30 PM, Friday Mar 10 from 4:30 AM to 7:30 PM, Friday Mar 31 from 4:30 AM to 7:30 PM, Friday Mar 24 from 4:30 AM to 7:30 PM",,http://www.smomp.org/files/Fish%20Fry%20Menu.pdf,,,,False,True,,,,True,178,40.435178,-80.014238
235,True,Belle Vernon Volunteer Fire Department,Fire Department,"10 Main Street Belle Vernon, PA 15680",https://www.facebook.com/152535481459140/photos/a.544155842297100.1073741825.152535481459140/1354051681307508/?type=3&theater,"Friday Apr 7 from 11:00 AM to 7:00 PM, Friday Mar 17 from 11:00 AM to 7:00 PM, Friday Mar 3 from 11:00 AM to 7:00 PM, Wednesday Mar 1 from 11:00 AM to 7:00 PM, Friday Mar 31 from 11:00 AM to 7:00 PM, Friday Apr 14 from 11:00 AM to 7:00 PM, Friday Mar 24 from 11:00 AM to 7:00 PM, Friday Mar 10 from 11:00 AM to 7:00 PM",11am-7pm Ash Wednesday and all Fridays of Lent,see website link for full menue,,,,,,False,True,,True,167,40.128673,-79.875649
236,True,Bobtown and Dunkard Twp Volunteer Fire (ADDRESS UNCERTAIN),Fire Department,"1 Larimer Ave Bobtown, Pa 15315",https://www.facebook.com/186206404761913/photos/a.436599139722637.94994.186206404761913/1233165853399291/?type=3&theater,,11-7 pm; Ash Wednesday and every Friday of Lent; the address for this fish fry is uncertain. Please check with Bobtown and Dunkard Volunteer Fire Department before visiting.,see website link for full menu,,,,,True,False,True,,True,169,39.759173,-79.980159
237,True,Blairsville Fire Department,,"51 West Campbell Street, Blairsville, PA",http://blairsvillefire.com/news.html?view=1&id=76857,"Friday Mar 10 from 4:00 PM to 7:00 PM, Friday Apr 7 from 4:00 PM to 7:00 PM, Friday Mar 3 from 4:00 PM to 7:00 PM, Friday Apr 14 from 4:00 PM to 7:00 PM, Friday Mar 31 from 4:00 PM to 7:00 PM, Friday Mar 17 from 4:00 PM to 7:00 PM, Friday Mar 24 from 4:00 PM to 7:00 PM",LENTEN DINNERS/ FISH FRY every Friday during Lent.4-7 pm,,,,,,,False,False,,True,168,40.431776,-79.265356
238,True,Washington Township VFC,Fire Department,"1314 Axton St Belle Vernon, Pennsylvania",https://www.facebook.com/Washington-Twp-VFC-116733318342068/,"Friday Apr 14 from 11:00 AM to 7:00 PM, Friday Apr 7 from 11:00 AM to 7:00 PM, Friday Mar 3 from 11:00 AM to 7:00 PM, Friday Mar 24 from 11:00 AM to 7:00 PM, Friday Mar 10 from 11:00 AM to 7:00 PM, Friday Mar 17 from 11:00 AM to 7:00 PM, Friday Mar 31 from 11:00 AM to 7:00 PM",,https://www.facebook.com/116733318342068/photos/a.370045689677495.111863.116733318342068/1655755587773159/?type=3&theater,,724-929-4172,,,True,,True,,True,120,40.118249,-79.841409
239,True,Coy's Pizza Shop,Restaurant,"2845 Old Rte 56, Homer City, PA",https://www.facebook.com/Official-Coys-Pizza-Six-Pack-Shop-601961369885756/,"Friday Mar 31 from 8:00 AM to 10:00 PM, Friday Apr 7 from 8:00 AM to 10:00 PM, Friday Mar 24 from 8:00 AM to 10:00 PM, Friday Mar 17 from 8:00 AM to 10:00 PM, Friday Mar 3 from 8:00 AM to 10:00 PM, Friday Apr 14 from 8:00 AM to 10:00 PM, Friday Mar 10 from 8:00 AM to 10:00 PM",," LENTEN SPECIALS  -- Fish Dinners  All dinners are served with 1 side item, Cole Slaw, Hush Puppies Roll, & Butter  Seafood Platter..$10.99 Seafood Platter.Fish, clam strips & jumbo butterfly shrimp. Jumbo Shrimp Platter (8 jumbo shrimp)$9.99 Breaded Cod Dinner (5 oz. portion) ..$8.99 Beer Battered Cod Dinner (9 oz. portion)....$10.99 Baked Cod Dinner (8 oz. portion)$10.99 ***Limited supply of baked cod dinners available, so order early!!!!  Choose 1 side: Pierogies Haluski Macaroni & Cheese French Fries  ADDITIONAL GREAT SPECIALS INCLUDE  --$1.00 off all ANY SIZE Pierogie Pizzas & White Pizzas --Shrimp Basket and French Fries $4.99 --Fried Cod Sub $4.25 --Side of Hush Puppies $1.79 --Side of Cole Slaw $1.89 --Side of Haluski, Macaroni & Cheese or Pierogies $2.09",,,,,True,True,True,,True,136,40.564215,-79.195986
240,False,St. Athanasius: Church--GOOD FRIDAY ONLY,Church,"7 Chalfonte Ave., West View, PA",,,,,,,,,,,,,False,177,40.5213,-80.029753
241,True,St Gregory Russian Orthodox Church,Church,"214 E. 15th Ave, Homestead, PA 15120",http://www.stgregoryrussianchurch.org/,"Friday Mar 10 from 11:00 AM to 5:00 PM, Friday Mar 3 from 11:00 AM to 5:00 PM, Friday Apr 14 from 11:00 AM to 5:00 PM, Friday Mar 24 from 11:00 AM to 5:00 PM, Friday Mar 17 from 11:00 AM to 5:00 PM, Friday Mar 31 from 11:00 AM to 5:00 PM, Friday Apr 7 from 11:00 AM to 5:00 PM",Homemade Cheregies!,http://www.stgregoryrussianchurch.org/fish-fry-english/,,412-462-8256,,False,True,False,True,,True,179,40.402733,-79.905097
242,False,St. Albert the Great (Baldwin),Church,"3171 Churchview Ave. Pittsburgh, PA 15227",,,,,,,,,,,,,False,4,40.386654,-79.961604
243,True,Holy Child (Bridgeville),Church,"220 Station St. Bridgeville, PA 15107",,"Friday Apr 7 from 11:00 AM to 1:00 PM, Friday Mar 17 from 4:00 PM to 7:00 PM, Friday Mar 31 from 4:00 PM to 7:00 PM, Wednesday Mar 1 from 11:00 AM to 1:00 PM, Friday Mar 10 from 11:00 AM to 1:00 PM, Friday Mar 3 from 4:00 PM to 7:00 PM, Friday Mar 24 from 4:00 PM to 7:00 PM, Friday Apr 7 from 4:00 PM to 7:00 PM, Friday Mar 17 from 11:00 AM to 1:00 PM, Wednesday Mar 1 from 4:00 PM to 7:00 PM, Friday Mar 10 from 4:00 PM to 7:00 PM, Friday Mar 24 from 11:00 AM to 1:00 PM, Friday Mar 31 from 11:00 AM to 1:00 PM, Friday Mar 3 from 11:00 AM to 1:00 PM",,,School Building,,,,True,False,True,,True,12,40.359053,-80.11533
244,True,"Madonna del Castello, Swissvale",Church,2021 South Braddock Ave,www.madonnadelcastello.org,"Wednesday Mar 1 from 12:00 PM to 7:00 PM, Friday Mar 31 from 12:00 PM to 7:00 PM, Friday Mar 17 from 12:00 PM to 7:00 PM, Friday Mar 3 from 12:00 PM to 7:00 PM, Friday Mar 10 from 12:00 PM to 7:00 PM, Friday Mar 24 from 12:00 PM to 7:00 PM, Friday Apr 7 from 12:00 PM to 7:00 PM",For takeout call 412-271-3959,"Menu includes baked or fried fish dinners and a la carte items, including fish, eggplant, haluski, macaroni and cheese, pasta e fagioli, applesauce, roll and beverage. ",In Social Hall,412-271-5666,,,True,False,True,,True,18,40.421887,-79.884757
245,False,"St. Ann, Waynesburg",Church,"232 E. High St. Waynesburg, PA",,,,,,,,,,,,,False,33,39.896451,-80.183427
246,True,Level Green VFD,Fire Department,"536 State Route 130 Level Green, Pennsylvania",,"Friday Mar 17 from 5:00 PM to 8:00 PM, Friday Apr 14 from 5:00 PM to 8:00 PM, Friday Apr 7 from 5:00 PM to 8:00 PM, Friday Mar 24 from 5:00 PM to 8:00 PM, Friday Mar 31 from 5:00 PM to 8:00 PM, Friday Mar 10 from 5:00 PM to 8:00 PM, Friday Mar 3 from 5:00 PM to 8:00 PM",,http://levelgreenvfd.org/custom.html?id=19721,,,,,,,False,,True,89,40.391566,-79.729517
247,False,Faith Lutheran Church,Church,"6810 Rt. 22 Highway East New Florence, PA. 15944",,,,,,,,,,,,,False,142,40.44577,-79.097634
248,True,"St. Colman, Turtle Creek",Church,"220 thompson st, Turtle Creek, Pa. 15145",http://www.saintcolmanchurch.org/,"Friday Mar 31 from 3:00 PM to 7:00 PM, Wednesday Mar 1 from 3:00 PM to 7:00 PM, Friday Mar 17 from 3:00 PM to 7:00 PM, Friday Mar 3 from 3:00 PM to 7:00 PM, Friday Mar 10 from 3:00 PM to 7:00 PM, Friday Apr 7 from 3:00 PM to 7:00 PM, Friday Apr 14 from 3:00 PM to 7:00 PM, Friday Mar 24 from 3:00 PM to 7:00 PM",ATM on site,"Menu: hand-dipped fried or baked cod, with variety of sides. Fish sandwich is $7, plus mix or match two sides for $4. Sides include haluski, pierogies, macaroni and cheese, french fries, cole slaw. Also, Boston clam chowder, crab cakes and bake sale.",In school cafeteria,,,,,False,False,,True,34,40.406472,-79.826808
249,False,St. Michael,Church,"85 North High Street, Greenville, PA",,,,,,,,,,,,,False,152,41.40634,-80.39651
250,False,Mahoning Township VFD,,"570 Jackson St Edinburg, Pennsylvania",,,,,,,,,,,,,False,119,41.014327,-80.434998
251,True,Polish National Union,Community Organization,"510 Franklin Ave, Canonsburg, PA",,"Friday Apr 7 from 11:00 AM to 8:00 PM, Wednesday Mar 1 from 5:00 PM to 8:00 PM, Friday Apr 14 from 11:00 AM to 8:00 PM, Friday Mar 31 from 11:00 AM to 8:00 PM, Friday Mar 24 from 11:00 AM to 8:00 PM, Friday Mar 17 from 11:00 AM to 8:00 PM, Friday Mar 3 from 11:00 AM to 8:00 PM, Friday Mar 10 from 11:00 AM to 8:00 PM",,,Enter through back entrance through the bar. The upstairs social hall offers a non-smoking dining experience.,(724) 745-9955,,,,,True,,True,68,40.267664,-80.177115
252,False,Monongahela Elks Lodge,,"444 Jackson St, Monongahela, PA 15063",,,,,,,,,,,,,False,124,40.199815,-79.927167
253,True,Beaver Valley Yacht Club,,"219 Front St, New Brighton, PA 15066",http://www.boatlocal.com/bvyc/pages/home,,"""2017"" FISH FRY DATES: March 3rd, 10th, 17th, 24th, and 31st; April 7th and 14th",,,,,,,True,True,,True,162,40.724353,-80.309308
254,True,"American Legion Post 760, Bethel Park",Community Organization,"2409 Bethel Church Rd., Bethel Park, PA 15102",,"Friday Mar 3 from 4:00 PM to 8:00 PM, Wednesday Mar 1 from 3:00 PM to 8:00 PM, Friday Mar 24 from 4:00 PM to 8:00 PM, Friday Mar 17 from 4:00 PM to 8:00 PM, Friday Apr 14 from 2:00 PM to 7:00 PM, Friday Mar 10 from 4:00 PM to 8:00 PM, Friday Apr 7 from 4:00 PM to 8:00 PM, Friday Mar 31 from 4:00 PM to 8:00 PM","Fish Fry starts Ash Wednesday 3-8pm-Every Friday following 4-8pm, Good Friday will be 2-7pm, The upstairs is Open to the public. Eat in or take out available. CASH ONLY.  Proceeds are to benefit the local veterans.",Platters (include cole slaw and choice of homemade chips or fries): Baked or Fried Fish Sandwiches $9.00 - Shrimp Basket $7.50 | Entrees: Fish Sandwich (Fried or baked) $7.50 - Shrimp Basket $6.50 - Pierogies $6.00 | Sides: Homemade Chips $2.00 - Fresh Cut Fries $2.00 - Macaroni & Cheese $3 - Homemade Haluski $3 - Homemade Cole Slaw $1,Guests should enter through the Front Porch entrance.,,,False,,,False,,True,96,40.344581,-80.03048
255,True,Trinity United Christian Church,Church,"3400 Garvers Ferry Rd., Lower Burrell, PA",http://www.trinitychurchlb.net/fishfry/,"Friday Mar 17 from 4:00 PM to 7:00 PM, Friday Mar 10 from 4:00 PM to 7:00 PM, Friday Mar 24 from 4:00 PM to 7:00 PM, Friday Apr 7 from 4:00 PM to 7:00 PM, Friday Mar 3 from 4:00 PM to 7:00 PM, Friday Apr 14 from 3:00 PM to 6:00 PM, Friday Mar 31 from 4:00 PM to 7:00 PM",,See website for menu,,"Call 724-230-0866, Text 412-327-3000",,False,False,False,False,,True,97,40.603583,-79.709254
256,True,St. Elias Byzantine,Church,"4200 Homestead-Duquesne Road, Munhall, PA 15120",http://steliasmunhallpa.weebly.com/lenten-kitchen.html,"Friday Apr 7 from 11:30 AM to 6:00 PM, Friday Mar 10 from 11:30 AM to 6:00 PM, Friday Mar 24 from 11:30 AM to 6:00 PM, Friday Apr 14 from 11:30 AM to 6:00 PM, Friday Mar 3 from 11:30 AM to 6:00 PM, Friday Mar 17 from 11:30 AM to 6:00 PM, Friday Mar 31 from 11:30 AM to 6:00 PM",11th Annual LENTEN KITCHEN and Bake Sale,See menu on website. Voted GOLD under Best Ethnic category by Tribune Review South Readers.,,412-461-9271,,True,True,False,True,,True,158,40.383301,-79.895522
257,False,Raccoon Township VFD,,"4061 Patterson Road Aliquippa, PA 15061",,,,,,,,,,,,,False,27,40.618562,-80.369453
258,True,North Braddock VFD,Fire Department,"1318 Wolfe, North Braddock, PA",http://station207.com/,"Friday Mar 3 from 10:00 AM to 6:00 PM, Friday Mar 10 from 10:00 AM to 6:00 PM, Friday Apr 14 from 10:00 AM to 6:00 PM, Friday Mar 31 from 10:00 AM to 6:00 PM, Wednesday Mar 1 from 10:00 AM to 6:00 PM, Friday Mar 17 from 10:00 AM to 6:00 PM, Friday Apr 7 from 10:00 AM to 6:00 PM, Friday Mar 24 from 10:00 AM to 6:00 PM",Ash Wednesday + Every Friday during Lent 10am to 6pm,"Seafood Platter $9.50, Shrimp Platter $6.50, Fish Sandwich $8, Haluski $3, Chicken Nuggets (5) $1.25, Crab Cake (1) $1.50, plus fries, coleslaw, mac, beverages, and extras.",,412-824-7791 Pickup or Delivery,,False,True,False,True,,True,77,40.405117,-79.845253
259,True,Seward Volunteer Fire Company Auxiliary,,"1230 10th Street Seward, Pa. 15954",https://www.facebook.com/SewardVFC/,"Friday Mar 3 from 12:00 PM to 6:00 PM, Friday Mar 24 from 12:00 PM to 6:00 PM, Friday Mar 10 from 12:00 PM to 6:00 PM, Friday Apr 7 from 12:00 PM to 6:00 PM, Friday Mar 17 from 12:00 PM to 6:00 PM, Friday Mar 31 from 12:00 PM to 6:00 PM, Friday Apr 14 from 12:00 PM to 6:00 PM",,"Dinners ($10.00 each): - Fried Fish Sandwich - Baked Fish Dinner - Shrimp Dinner - Chicken Strips Dinner All Dinners include: Choice of One - Cabbage & Noodles, Mac & Cheese, French Fries, or Stewed Tomatoes Choice of: Coleslaw or Applesauce Choice of Cake   la carte: $7.00 - Fish Sandwich, Baked Fish, Shrimp, or Chicken Strips $1.50 - Cabbage & Noodles, Mac & Cheese, French Fries, Stewed Tomatoes $1.00 - Coleslaw or Cake $0.75 - Applesauce",,,,,True,,True,,True,29,40.413379,-79.024207
260,False,South Brownsville VFC,,"530 water street, Brownsville, PA",,,,,,,,,,,,,False,125,40.020716,-79.894309
261,False,Dravosburg Volunteer Fire Department #1,,"598 Ravine Street, Dravosburg, PA",,,,,,,,,,,,,False,61,40.352022,-79.892203
262,False,Rainbow VFC,,"2916 Jacks Run Road, White Oak, PA",,,,,,,,,,,,,False,71,40.341033,-79.801553
263,True,Avella VFD,Fire Department,"1560 Avella Rd., Avella, PA 15312",http://avellafire35.org/custom.html?id=22853,,Avella Vol. Fire Dept. and Avella Area Community Association   Please Join Us Ash Wednesday - March 1st And Every Friday until Easter 11:00 AM to 7:00 PM Eat In or Take out at the AVFD Social Hall. For Deliveries Please Call: 724-587-5870. ,"Fish Dinner  $10.00, Shrimp Dinner $10.00, Fish Sandwich  $7.00, Shrimp (6 pieces) $7.00, French Fries  $2.00, Coleslaw  $2.00, Pierogies 4/$2.00, Macaroni and Cheese  $2.00, Cabbage and Noodles  $2.00, Hush Puppies  $2.00, Desserts  $1.00, Pop/Water  $1.00",,,,,,False,False,,True,161,40.274316,-80.459193
264,False,Ford Cliff VFD,,"609 Neale Ave. Ford Cliff, Pa.",,,,,,,,,,,,,False,117,40.761772,-79.533249
265,False,Harrison City VFD,,"1010 Mill St, Harrison City, PA 15636",,,,,,,,,,,,,False,118,40.353405,-79.650425
266,True,Brighton Township VFD Station 63,,"84 Grange Road Beaver, PA 15009",https://www.facebook.com/BrightonTwpFire/?ref=ts,,,,,724-495-3803,,,,,False,,True,137,40.704918,-80.396937
267,True,Skyview VFC,Fire Department,"660 Noble Dr., West Mifflin, PA",http://skyview4.com/custom.html?id=17408,,"11-7; Ash Wednesday and Fridays of Lent. Delivery available, $20 minimum",FISH SANDWICH $7.00. FISH DINNER $8.50. EXTRA BUN $0.75. BAKED FISH $8.50. SHRIMP BASKET $6.50. SHRIMP DINNER $8.00. GRILLED CHEESE SANDWICH $3.00. GRILLED CHEESE W/ FRIES $4.25. DEVILED CRAB $2.50. CRAB CAKE $3.00. CRAB CAKE DINNER $7.00. MACARONI and CHEESE $3.75. HALUSKI $3.75. FRENCH FRIES $3.00. CHEESE SAUCE $1.00. COLE SLAW (INCLUDES TWO) $2.75. COFFEE $0.75. 20oz BOTTLES of POP $1.50,,412-461-9553 ,,,,False,,,True,134,40.360804,-79.929583
268,False,McGinnis Sisters,,"4311 Northern Pike, Monroeville, PA",,,,,,,,,,,,,False,122,40.43507,-79.753444
269,False,McGinnis Sisters,,"700 Adams Shoppes, Mars, PA",,,,,,,,,,,,,False,123,40.687985,-80.054326
270,True,American Serbian Club,Community Organization,"2524 Sarah St., Pittsburgh, PA 15203",,,Times: March 1  Lunch Only 11AM-2PM; March 3 thru April 7 11AM-7PM ,"Fish Dinner $9 includes 2 sides limited quantities of baked fish available, Fish Sandwich Dinner $9 includes 2 sides, Fried Shrimp Dinner $9 includes 2 sides, Fish Sandwich $7, Soup of the Day $3, Side Dishes: Rice $2, French Fries $2, Mac & Cheese $2, Coleslaw $2, Vegetable of the Day $2, Haluski $2, Pierogi 3 $2, Desserts $2",Events benefit Holy Trinity.,412-431-9351,,,,True,True,,True,176,40.426471,-79.969302
271,False,Marianna VFC,,"85 Broad Street, Marianna, PA",,,,,,,,,,,,,False,138,40.022791,-80.085837
272,False,Highland Hornets Youth Football and Cheerleading Fish Fry,,"Karns Road at Chevrolet Road, Natrona Heights, PA",,,,,,,,,,,,,False,140,40.632802,-79.701475
273,False,Leechburg VFC,,"268 Canal Street Leechburg, PA",,,,,,,,,,,,,False,154,40.625222,-79.604859
274,False,Coulter Fire Department,,"500 Railroad St, Coulter, PA 15028",,,,,,,,,,,,,False,155,40.298202,-79.804957
275,True,Shop N Go,Restaurant,"2226 PA-837, West Elizabeth, PA 15088",https://www.facebook.com/SHOPANDGO/,"Friday Mar 3 from 10:00 AM to 7:00 PM, Friday Mar 10 from 10:00 AM to 7:00 PM, Friday Apr 7 from 10:00 AM to 7:00 PM, Friday Mar 31 from 10:00 AM to 7:00 PM, Friday Mar 24 from 10:00 AM to 7:00 PM, Friday Apr 14 from 10:00 AM to 7:00 PM, Friday Mar 17 from 10:00 AM to 7:00 PM",,https://www.facebook.com/SHOPANDGO/photos/a.165259453529016.63198.119862611402034/1260603760661241/?type=3&theater,,412-384-9111,,,True,,True,,True,139,40.268082,-79.902427
276,True,Ligonier Township VFD #1,Fire Department,"44 Fire Hall Road, Ligonier, PA",,"Friday Mar 3 from 4:00 PM to 7:00 PM, Friday Apr 14 from 4:00 PM to 7:00 PM, Friday Apr 7 from 4:00 PM to 7:00 PM, Friday Mar 10 from 4:00 PM to 7:00 PM, Friday Mar 24 from 4:00 PM to 7:00 PM, Friday Mar 31 from 4:00 PM to 7:00 PM, Friday Mar 17 from 4:00 PM to 7:00 PM",,"Fish Fry Menu!!!!!!  Baked Fish Dinner Fried Fish Dinner Fried Fish Sandwich Dinner Shrimp Dinner Fish Sandwich  Side Option 1 includes: coleslaw, parsley potatoes, dessert, drinks your choice of Green Beans or Macaroni and Cheese.  Side Option 2 Includes: coleslaw, French Fries, Dessert, Drinks and your choice of Green Beans or Macaroni and Cheese.  Adult Dinner $9.00 Children $5.75 Take out .50 Extra",,724-238-5270,,,True,,False,,True,127,40.25274,-79.173197
